<?xml version="1.0" encoding="UTF-8"?>
<gpx creator="Garmin Connect" version="1.1"
  xsi:schemaLocation="http://www.topografix.com/GPX/1/1 http://www.topografix.com/GPX/11.xsd"
  xmlns:ns3="http://www.garmin.com/xmlschemas/TrackPointExtension/v1"
  xmlns="http://www.topografix.com/GPX/1/1"
  xmlns:xsi="http://www.w3.org/2001/XMLSchema-instance" xmlns:ns2="http://www.garmin.com/xmlschemas/GpxExtensions/v3">
  <metadata>
    <link href="connect.garmin.com">
      <text>Garmin Connect</text>
    </link>
    <time>2026-02-25T09:32:46.000Z</time>
  </metadata>
  <trk>
    <name>Подольск Мультитренировка</name>
    <type>multi_sport</type>
    <trkseg>
      <trkpt lat="55.4627413116395473480224609375" lon="37.6068033277988433837890625">
        <ele>145.1999969482421875</ele>
        <time>2026-02-25T09:32:46.000Z</time>
        <extensions>
          <ns3:TrackPointExtension>
            <ns3:atemp>29.0</ns3:atemp>
            <ns3:hr>89</ns3:hr>
          </ns3:TrackPointExtension>
        </extensions>
      </trkpt>
      <trkpt lat="55.4628132283687591552734375" lon="37.60659637860953807830810546875">
        <ele>145.1999969482421875</ele>
        <time>2026-02-25T09:32:47.000Z</time>
        <extensions>
          <ns3:TrackPointExtension>
            <ns3:atemp>29.0</ns3:atemp>
            <ns3:hr>89</ns3:hr>
          </ns3:TrackPointExtension>
        </extensions>
      </trkpt>
      <trkpt lat="55.462717004120349884033203125" lon="37.606220282614231109619140625">
        <ele>145.1999969482421875</ele>
        <time>2026-02-25T09:32:48.000Z</time>
        <extensions>
          <ns3:TrackPointExtension>
            <ns3:atemp>29.0</ns3:atemp>
            <ns3:hr>89</ns3:hr>
          </ns3:TrackPointExtension>
        </extensions>
      </trkpt>
      <trkpt lat="55.4626367054879665374755859375" lon="37.606002353131771087646484375">
        <ele>145.1999969482421875</ele>
        <time>2026-02-25T09:32:49.000Z</time>
        <extensions>
          <ns3:TrackPointExtension>
            <ns3:atemp>29.0</ns3:atemp>
            <ns3:hr>90</ns3:hr>
          </ns3:TrackPointExtension>
        </extensions>
      </trkpt>
      <trkpt lat="55.462568141520023345947265625" lon="37.605854161083698272705078125">
        <ele>145</ele>
        <time>2026-02-25T09:32:50.000Z</time>
        <extensions>
          <ns3:TrackPointExtension>
            <ns3:atemp>29.0</ns3:atemp>
            <ns3:hr>90</ns3:hr>
          </ns3:TrackPointExtension>
        </extensions>
      </trkpt>
      <trkpt lat="55.46249949373304843902587890625" lon="37.60570035316050052642822265625">
        <ele>144.600006103515625</ele>
        <time>2026-02-25T09:32:51.000Z</time>
        <extensions>
          <ns3:TrackPointExtension>
            <ns3:atemp>29.0</ns3:atemp>
            <ns3:hr>90</ns3:hr>
          </ns3:TrackPointExtension>
        </extensions>
      </trkpt>
      <trkpt lat="55.4624580033123493194580078125" lon="37.605646960437297821044921875">
        <ele>144.399993896484375</ele>
        <time>2026-02-25T09:32:52.000Z</time>
        <extensions>
          <ns3:TrackPointExtension>
            <ns3:atemp>29.0</ns3:atemp>
            <ns3:hr>89</ns3:hr>
          </ns3:TrackPointExtension>
        </extensions>
      </trkpt>
      <trkpt lat="55.462410561740398406982421875" lon="37.60557546280324459075927734375">
        <ele>144.399993896484375</ele>
        <time>2026-02-25T09:32:53.000Z</time>
        <extensions>
          <ns3:TrackPointExtension>
            <ns3:atemp>29.0</ns3:atemp>
            <ns3:hr>88</ns3:hr>
          </ns3:TrackPointExtension>
        </extensions>
      </trkpt>
      <trkpt lat="55.462361276149749755859375" lon="37.60552634485065937042236328125">
        <ele>144.399993896484375</ele>
        <time>2026-02-25T09:32:54.000Z</time>
        <extensions>
          <ns3:TrackPointExtension>
            <ns3:atemp>28.0</ns3:atemp>
            <ns3:hr>87</ns3:hr>
          </ns3:TrackPointExtension>
        </extensions>
      </trkpt>
      <trkpt lat="55.46230050735175609588623046875" lon="37.6054221577942371368408203125">
        <ele>144.399993896484375</ele>
        <time>2026-02-25T09:32:55.000Z</time>
        <extensions>
          <ns3:TrackPointExtension>
            <ns3:atemp>28.0</ns3:atemp>
            <ns3:hr>88</ns3:hr>
          </ns3:TrackPointExtension>
        </extensions>
      </trkpt>
      <trkpt lat="55.4622192867100238800048828125" lon="37.60528477840125560760498046875">
        <ele>144.399993896484375</ele>
        <time>2026-02-25T09:32:56.000Z</time>
        <extensions>
          <ns3:TrackPointExtension>
            <ns3:atemp>29.0</ns3:atemp>
            <ns3:hr>89</ns3:hr>
          </ns3:TrackPointExtension>
        </extensions>
      </trkpt>
      <trkpt lat="55.4621472023427486419677734375" lon="37.605173885822296142578125">
        <ele>144.399993896484375</ele>
        <time>2026-02-25T09:32:57.000Z</time>
        <extensions>
          <ns3:TrackPointExtension>
            <ns3:atemp>29.0</ns3:atemp>
            <ns3:hr>91</ns3:hr>
          </ns3:TrackPointExtension>
        </extensions>
      </trkpt>
      <trkpt lat="55.46209816820919513702392578125" lon="37.605094425380229949951171875">
        <ele>144.399993896484375</ele>
        <time>2026-02-25T09:32:58.000Z</time>
        <extensions>
          <ns3:TrackPointExtension>
            <ns3:atemp>29.0</ns3:atemp>
            <ns3:hr>92</ns3:hr>
          </ns3:TrackPointExtension>
        </extensions>
      </trkpt>
      <trkpt lat="55.46204754151403903961181640625" lon="37.6050278730690479278564453125">
        <ele>144.399993896484375</ele>
        <time>2026-02-25T09:32:59.000Z</time>
        <extensions>
          <ns3:TrackPointExtension>
            <ns3:atemp>28.0</ns3:atemp>
            <ns3:hr>93</ns3:hr>
          </ns3:TrackPointExtension>
        </extensions>
      </trkpt>
      <trkpt lat="55.46202373690903186798095703125" lon="37.60500616393983364105224609375">
        <ele>144.399993896484375</ele>
        <time>2026-02-25T09:33:00.000Z</time>
        <extensions>
          <ns3:TrackPointExtension>
            <ns3:atemp>28.0</ns3:atemp>
            <ns3:hr>94</ns3:hr>
          </ns3:TrackPointExtension>
        </extensions>
      </trkpt>
      <trkpt lat="55.46201996505260467529296875" lon="37.60496140457689762115478515625">
        <ele>144.600006103515625</ele>
        <time>2026-02-25T09:33:01.000Z</time>
        <extensions>
          <ns3:TrackPointExtension>
            <ns3:atemp>28.0</ns3:atemp>
            <ns3:hr>94</ns3:hr>
          </ns3:TrackPointExtension>
        </extensions>
      </trkpt>
      <trkpt lat="55.4619812406599521636962890625" lon="37.60487808845937252044677734375">
        <ele>144.600006103515625</ele>
        <time>2026-02-25T09:33:02.000Z</time>
        <extensions>
          <ns3:TrackPointExtension>
            <ns3:atemp>28.0</ns3:atemp>
            <ns3:hr>95</ns3:hr>
          </ns3:TrackPointExtension>
        </extensions>
      </trkpt>
      <trkpt lat="55.461964644491672515869140625" lon="37.6047938503324985504150390625">
        <ele>144.8000030517578125</ele>
        <time>2026-02-25T09:33:03.000Z</time>
        <extensions>
          <ns3:TrackPointExtension>
            <ns3:atemp>28.0</ns3:atemp>
            <ns3:hr>95</ns3:hr>
          </ns3:TrackPointExtension>
        </extensions>
      </trkpt>
      <trkpt lat="55.46193840913474559783935546875" lon="37.60472838766872882843017578125">
        <ele>145</ele>
        <time>2026-02-25T09:33:04.000Z</time>
        <extensions>
          <ns3:TrackPointExtension>
            <ns3:atemp>28.0</ns3:atemp>
            <ns3:hr>96</ns3:hr>
          </ns3:TrackPointExtension>
        </extensions>
      </trkpt>
      <trkpt lat="55.461920388042926788330078125" lon="37.6046788506209850311279296875">
        <ele>145</ele>
        <time>2026-02-25T09:33:05.000Z</time>
        <extensions>
          <ns3:TrackPointExtension>
            <ns3:atemp>28.0</ns3:atemp>
            <ns3:hr>97</ns3:hr>
          </ns3:TrackPointExtension>
        </extensions>
      </trkpt>
      <trkpt lat="55.461905635893344879150390625" lon="37.6046476699411869049072265625">
        <ele>144.8000030517578125</ele>
        <time>2026-02-25T09:33:06.000Z</time>
        <extensions>
          <ns3:TrackPointExtension>
            <ns3:atemp>28.0</ns3:atemp>
            <ns3:hr>97</ns3:hr>
          </ns3:TrackPointExtension>
        </extensions>
      </trkpt>
      <trkpt lat="55.461859367787837982177734375" lon="37.604682035744190216064453125">
        <ele>144.8000030517578125</ele>
        <time>2026-02-25T09:33:07.000Z</time>
        <extensions>
          <ns3:TrackPointExtension>
            <ns3:atemp>28.0</ns3:atemp>
            <ns3:hr>98</ns3:hr>
          </ns3:TrackPointExtension>
        </extensions>
      </trkpt>
      <trkpt lat="55.46184989623725414276123046875" lon="37.60462998412549495697021484375">
        <ele>144.600006103515625</ele>
        <time>2026-02-25T09:33:08.000Z</time>
        <extensions>
          <ns3:TrackPointExtension>
            <ns3:atemp>28.0</ns3:atemp>
            <ns3:hr>99</ns3:hr>
          </ns3:TrackPointExtension>
        </extensions>
      </trkpt>
      <trkpt lat="55.4618367366492748260498046875" lon="37.60460601188242435455322265625">
        <ele>144.600006103515625</ele>
        <time>2026-02-25T09:33:09.000Z</time>
        <extensions>
          <ns3:TrackPointExtension>
            <ns3:atemp>28.0</ns3:atemp>
            <ns3:hr>101</ns3:hr>
          </ns3:TrackPointExtension>
        </extensions>
      </trkpt>
      <trkpt lat="55.46175434254109859466552734375" lon="37.60462227277457714080810546875">
        <ele>144.399993896484375</ele>
        <time>2026-02-25T09:33:10.000Z</time>
        <extensions>
          <ns3:TrackPointExtension>
            <ns3:atemp>28.0</ns3:atemp>
            <ns3:hr>102</ns3:hr>
          </ns3:TrackPointExtension>
        </extensions>
      </trkpt>
      <trkpt lat="55.46172400005161762237548828125" lon="37.60461590252816677093505859375">
        <ele>144.600006103515625</ele>
        <time>2026-02-25T09:33:11.000Z</time>
        <extensions>
          <ns3:TrackPointExtension>
            <ns3:atemp>28.0</ns3:atemp>
            <ns3:hr>103</ns3:hr>
          </ns3:TrackPointExtension>
        </extensions>
      </trkpt>
      <trkpt lat="55.46170438639819622039794921875" lon="37.60461539961397647857666015625">
        <ele>144.600006103515625</ele>
        <time>2026-02-25T09:33:12.000Z</time>
        <extensions>
          <ns3:TrackPointExtension>
            <ns3:atemp>28.0</ns3:atemp>
            <ns3:hr>105</ns3:hr>
          </ns3:TrackPointExtension>
        </extensions>
      </trkpt>
      <trkpt lat="55.4616915620863437652587890625" lon="37.60461171157658100128173828125">
        <ele>144.8000030517578125</ele>
        <time>2026-02-25T09:33:13.000Z</time>
        <extensions>
          <ns3:TrackPointExtension>
            <ns3:atemp>28.0</ns3:atemp>
            <ns3:hr>106</ns3:hr>
          </ns3:TrackPointExtension>
        </extensions>
      </trkpt>
      <trkpt lat="55.4616774804890155792236328125" lon="37.604614309966564178466796875">
        <ele>144.8000030517578125</ele>
        <time>2026-02-25T09:33:14.000Z</time>
        <extensions>
          <ns3:TrackPointExtension>
            <ns3:atemp>28.0</ns3:atemp>
            <ns3:hr>107</ns3:hr>
          </ns3:TrackPointExtension>
        </extensions>
      </trkpt>
      <trkpt lat="55.46166515909135341644287109375" lon="37.6046087779104709625244140625">
        <ele>144.8000030517578125</ele>
        <time>2026-02-25T09:33:15.000Z</time>
        <extensions>
          <ns3:TrackPointExtension>
            <ns3:atemp>28.0</ns3:atemp>
            <ns3:hr>109</ns3:hr>
          </ns3:TrackPointExtension>
        </extensions>
      </trkpt>
      <trkpt lat="55.461655519902706146240234375" lon="37.604599893093109130859375">
        <ele>144.8000030517578125</ele>
        <time>2026-02-25T09:33:16.000Z</time>
        <extensions>
          <ns3:TrackPointExtension>
            <ns3:atemp>28.0</ns3:atemp>
            <ns3:hr>109</ns3:hr>
          </ns3:TrackPointExtension>
        </extensions>
      </trkpt>
      <trkpt lat="55.46164487488567829132080078125" lon="37.60459327138960361480712890625">
        <ele>144.8000030517578125</ele>
        <time>2026-02-25T09:33:17.000Z</time>
        <extensions>
          <ns3:TrackPointExtension>
            <ns3:atemp>28.0</ns3:atemp>
            <ns3:hr>110</ns3:hr>
          </ns3:TrackPointExtension>
        </extensions>
      </trkpt>
      <trkpt lat="55.46164671890437602996826171875" lon="37.6046074368059635162353515625">
        <ele>144.600006103515625</ele>
        <time>2026-02-25T09:33:18.000Z</time>
        <extensions>
          <ns3:TrackPointExtension>
            <ns3:atemp>28.0</ns3:atemp>
            <ns3:hr>110</ns3:hr>
          </ns3:TrackPointExtension>
        </extensions>
      </trkpt>
      <trkpt lat="55.4616426117718219757080078125" lon="37.60463568381965160369873046875">
        <ele>144.399993896484375</ele>
        <time>2026-02-25T09:33:19.000Z</time>
        <extensions>
          <ns3:TrackPointExtension>
            <ns3:atemp>28.0</ns3:atemp>
            <ns3:hr>110</ns3:hr>
          </ns3:TrackPointExtension>
        </extensions>
      </trkpt>
      <trkpt lat="55.46162811107933521270751953125" lon="37.6046372763812541961669921875">
        <ele>144.1999969482421875</ele>
        <time>2026-02-25T09:33:20.000Z</time>
        <extensions>
          <ns3:TrackPointExtension>
            <ns3:atemp>28.0</ns3:atemp>
            <ns3:hr>110</ns3:hr>
          </ns3:TrackPointExtension>
        </extensions>
      </trkpt>
      <trkpt lat="55.46162224374711513519287109375" lon="37.604627721011638641357421875">
        <ele>144</ele>
        <time>2026-02-25T09:33:21.000Z</time>
        <extensions>
          <ns3:TrackPointExtension>
            <ns3:atemp>28.0</ns3:atemp>
            <ns3:hr>110</ns3:hr>
          </ns3:TrackPointExtension>
        </extensions>
      </trkpt>
      <trkpt lat="55.46161637641489505767822265625" lon="37.6046334207057952880859375">
        <ele>143.8000030517578125</ele>
        <time>2026-02-25T09:33:22.000Z</time>
        <extensions>
          <ns3:TrackPointExtension>
            <ns3:atemp>28.0</ns3:atemp>
            <ns3:hr>110</ns3:hr>
          </ns3:TrackPointExtension>
        </extensions>
      </trkpt>
      <trkpt lat="55.4616062343120574951171875" lon="37.604658566415309906005859375">
        <ele>143.8000030517578125</ele>
        <time>2026-02-25T09:33:23.000Z</time>
        <extensions>
          <ns3:TrackPointExtension>
            <ns3:atemp>28.0</ns3:atemp>
            <ns3:hr>111</ns3:hr>
          </ns3:TrackPointExtension>
        </extensions>
      </trkpt>
      <trkpt lat="55.461596511304378509521484375" lon="37.60465529747307300567626953125">
        <ele>143.600006103515625</ele>
        <time>2026-02-25T09:33:24.000Z</time>
        <extensions>
          <ns3:TrackPointExtension>
            <ns3:atemp>28.0</ns3:atemp>
            <ns3:hr>111</ns3:hr>
          </ns3:TrackPointExtension>
        </extensions>
      </trkpt>
      <trkpt lat="55.4615939967334270477294921875" lon="37.6046200096607208251953125">
        <ele>143.600006103515625</ele>
        <time>2026-02-25T09:33:25.000Z</time>
        <extensions>
          <ns3:TrackPointExtension>
            <ns3:atemp>27.0</ns3:atemp>
            <ns3:hr>112</ns3:hr>
          </ns3:TrackPointExtension>
        </extensions>
      </trkpt>
      <trkpt lat="55.46159391291439533233642578125" lon="37.60461489669978618621826171875">
        <ele>143.600006103515625</ele>
        <time>2026-02-25T09:33:26.000Z</time>
        <extensions>
          <ns3:TrackPointExtension>
            <ns3:atemp>27.0</ns3:atemp>
            <ns3:hr>118</ns3:hr>
          </ns3:TrackPointExtension>
        </extensions>
      </trkpt>
      <trkpt lat="55.4615876264870166778564453125" lon="37.6046188361942768096923828125">
        <ele>143.600006103515625</ele>
        <time>2026-02-25T09:33:27.000Z</time>
        <extensions>
          <ns3:TrackPointExtension>
            <ns3:atemp>27.0</ns3:atemp>
            <ns3:hr>119</ns3:hr>
          </ns3:TrackPointExtension>
        </extensions>
      </trkpt>
      <trkpt lat="55.46157664619386196136474609375" lon="37.6046225242316722869873046875">
        <ele>143.8000030517578125</ele>
        <time>2026-02-25T09:33:28.000Z</time>
        <extensions>
          <ns3:TrackPointExtension>
            <ns3:atemp>27.0</ns3:atemp>
            <ns3:hr>120</ns3:hr>
          </ns3:TrackPointExtension>
        </extensions>
      </trkpt>
      <trkpt lat="55.461554937064647674560546875" lon="37.604631744325160980224609375">
        <ele>143.8000030517578125</ele>
        <time>2026-02-25T09:33:29.000Z</time>
        <extensions>
          <ns3:TrackPointExtension>
            <ns3:atemp>27.0</ns3:atemp>
            <ns3:hr>120</ns3:hr>
          </ns3:TrackPointExtension>
        </extensions>
      </trkpt>
      <trkpt lat="55.46154043637216091156005859375" lon="37.60461975820362567901611328125">
        <ele>144</ele>
        <time>2026-02-25T09:33:30.000Z</time>
        <extensions>
          <ns3:TrackPointExtension>
            <ns3:atemp>27.0</ns3:atemp>
            <ns3:hr>121</ns3:hr>
          </ns3:TrackPointExtension>
        </extensions>
      </trkpt>
      <trkpt lat="55.46152551658451557159423828125" lon="37.60461757890880107879638671875">
        <ele>144.1999969482421875</ele>
        <time>2026-02-25T09:33:31.000Z</time>
        <extensions>
          <ns3:TrackPointExtension>
            <ns3:atemp>27.0</ns3:atemp>
            <ns3:hr>122</ns3:hr>
          </ns3:TrackPointExtension>
        </extensions>
      </trkpt>
      <trkpt lat="55.4615205712616443634033203125" lon="37.604645825922489166259765625">
        <ele>144.1999969482421875</ele>
        <time>2026-02-25T09:33:32.000Z</time>
        <extensions>
          <ns3:TrackPointExtension>
            <ns3:atemp>27.0</ns3:atemp>
            <ns3:hr>123</ns3:hr>
          </ns3:TrackPointExtension>
        </extensions>
      </trkpt>
      <trkpt lat="55.46150355599820613861083984375" lon="37.60458924807608127593994140625">
        <ele>144.399993896484375</ele>
        <time>2026-02-25T09:33:33.000Z</time>
        <extensions>
          <ns3:TrackPointExtension>
            <ns3:atemp>27.0</ns3:atemp>
            <ns3:hr>124</ns3:hr>
          </ns3:TrackPointExtension>
        </extensions>
      </trkpt>
      <trkpt lat="55.46149651519954204559326171875" lon="37.6046087779104709625244140625">
        <ele>144.399993896484375</ele>
        <time>2026-02-25T09:33:34.000Z</time>
        <extensions>
          <ns3:TrackPointExtension>
            <ns3:atemp>27.0</ns3:atemp>
            <ns3:hr>124</ns3:hr>
          </ns3:TrackPointExtension>
        </extensions>
      </trkpt>
      <trkpt lat="55.4614935815334320068359375" lon="37.60464104823768138885498046875">
        <ele>144.399993896484375</ele>
        <time>2026-02-25T09:33:35.000Z</time>
        <extensions>
          <ns3:TrackPointExtension>
            <ns3:atemp>27.0</ns3:atemp>
            <ns3:hr>124</ns3:hr>
          </ns3:TrackPointExtension>
        </extensions>
      </trkpt>
      <trkpt lat="55.46148612163960933685302734375" lon="37.60460534133017063140869140625">
        <ele>144.399993896484375</ele>
        <time>2026-02-25T09:33:36.000Z</time>
        <extensions>
          <ns3:TrackPointExtension>
            <ns3:atemp>27.0</ns3:atemp>
            <ns3:hr>124</ns3:hr>
          </ns3:TrackPointExtension>
        </extensions>
      </trkpt>
      <trkpt lat="55.4614779911935329437255859375" lon="37.6045759208500385284423828125">
        <ele>144.399993896484375</ele>
        <time>2026-02-25T09:33:37.000Z</time>
        <extensions>
          <ns3:TrackPointExtension>
            <ns3:atemp>27.0</ns3:atemp>
            <ns3:hr>124</ns3:hr>
          </ns3:TrackPointExtension>
        </extensions>
      </trkpt>
      <trkpt lat="55.4614629037678241729736328125" lon="37.604511715471744537353515625">
        <ele>144.600006103515625</ele>
        <time>2026-02-25T09:33:38.000Z</time>
        <extensions>
          <ns3:TrackPointExtension>
            <ns3:atemp>27.0</ns3:atemp>
            <ns3:hr>125</ns3:hr>
          </ns3:TrackPointExtension>
        </extensions>
      </trkpt>
      <trkpt lat="55.46149902977049350738525390625" lon="37.60471665300428867340087890625">
        <ele>144.600006103515625</ele>
        <time>2026-02-25T09:33:39.000Z</time>
        <extensions>
          <ns3:TrackPointExtension>
            <ns3:atemp>27.0</ns3:atemp>
            <ns3:hr>125</ns3:hr>
          </ns3:TrackPointExtension>
        </extensions>
      </trkpt>
      <trkpt lat="55.46149291098117828369140625" lon="37.604747749865055084228515625">
        <ele>144.8000030517578125</ele>
        <time>2026-02-25T09:33:40.000Z</time>
        <extensions>
          <ns3:TrackPointExtension>
            <ns3:atemp>27.0</ns3:atemp>
            <ns3:hr>125</ns3:hr>
          </ns3:TrackPointExtension>
        </extensions>
      </trkpt>
      <trkpt lat="55.46148444525897502899169921875" lon="37.60476744733750820159912109375">
        <ele>144.600006103515625</ele>
        <time>2026-02-25T09:33:41.000Z</time>
        <extensions>
          <ns3:TrackPointExtension>
            <ns3:atemp>27.0</ns3:atemp>
            <ns3:hr>125</ns3:hr>
          </ns3:TrackPointExtension>
        </extensions>
      </trkpt>
      <trkpt lat="55.46149835921823978424072265625" lon="37.6045514456927776336669921875">
        <ele>144.8000030517578125</ele>
        <time>2026-02-25T09:33:42.000Z</time>
        <extensions>
          <ns3:TrackPointExtension>
            <ns3:atemp>27.0</ns3:atemp>
            <ns3:hr>125</ns3:hr>
          </ns3:TrackPointExtension>
        </extensions>
      </trkpt>
      <trkpt lat="55.4614390991628170013427734375" lon="37.60443401522934436798095703125">
        <ele>144.8000030517578125</ele>
        <time>2026-02-25T09:33:43.000Z</time>
        <extensions>
          <ns3:TrackPointExtension>
            <ns3:atemp>27.0</ns3:atemp>
            <ns3:hr>125</ns3:hr>
          </ns3:TrackPointExtension>
        </extensions>
      </trkpt>
      <trkpt lat="55.4614471457898616790771484375" lon="37.604220695793628692626953125">
        <ele>144.8000030517578125</ele>
        <time>2026-02-25T09:33:44.000Z</time>
        <extensions>
          <ns3:TrackPointExtension>
            <ns3:atemp>27.0</ns3:atemp>
            <ns3:hr>125</ns3:hr>
          </ns3:TrackPointExtension>
        </extensions>
      </trkpt>
      <trkpt lat="55.46142585575580596923828125" lon="37.60416545905172824859619140625">
        <ele>145</ele>
        <time>2026-02-25T09:33:45.000Z</time>
        <extensions>
          <ns3:TrackPointExtension>
            <ns3:atemp>27.0</ns3:atemp>
            <ns3:hr>126</ns3:hr>
          </ns3:TrackPointExtension>
        </extensions>
      </trkpt>
      <trkpt lat="55.461408086121082305908203125" lon="37.604097314178943634033203125">
        <ele>145</ele>
        <time>2026-02-25T09:33:46.000Z</time>
        <extensions>
          <ns3:TrackPointExtension>
            <ns3:atemp>27.0</ns3:atemp>
            <ns3:hr>127</ns3:hr>
          </ns3:TrackPointExtension>
        </extensions>
      </trkpt>
      <trkpt lat="55.46138637699186801910400390625" lon="37.60404140688478946685791015625">
        <ele>145.1999969482421875</ele>
        <time>2026-02-25T09:33:47.000Z</time>
        <extensions>
          <ns3:TrackPointExtension>
            <ns3:atemp>27.0</ns3:atemp>
            <ns3:hr>129</ns3:hr>
          </ns3:TrackPointExtension>
        </extensions>
      </trkpt>
      <trkpt lat="55.461368858814239501953125" lon="37.60400033555924892425537109375">
        <ele>145.1999969482421875</ele>
        <time>2026-02-25T09:33:48.000Z</time>
        <extensions>
          <ns3:TrackPointExtension>
            <ns3:atemp>27.0</ns3:atemp>
            <ns3:hr>131</ns3:hr>
          </ns3:TrackPointExtension>
        </extensions>
      </trkpt>
      <trkpt lat="55.46140481717884540557861328125" lon="37.604065127670764923095703125">
        <ele>145.1999969482421875</ele>
        <time>2026-02-25T09:33:49.000Z</time>
        <extensions>
          <ns3:TrackPointExtension>
            <ns3:atemp>26.0</ns3:atemp>
            <ns3:hr>134</ns3:hr>
          </ns3:TrackPointExtension>
        </extensions>
      </trkpt>
      <trkpt lat="55.461411438882350921630859375" lon="37.60409387759864330291748046875">
        <ele>145.1999969482421875</ele>
        <time>2026-02-25T09:33:50.000Z</time>
        <extensions>
          <ns3:TrackPointExtension>
            <ns3:atemp>26.0</ns3:atemp>
            <ns3:hr>135</ns3:hr>
          </ns3:TrackPointExtension>
        </extensions>
      </trkpt>
      <trkpt lat="55.4614613950252532958984375" lon="37.604063451290130615234375">
        <ele>145.1999969482421875</ele>
        <time>2026-02-25T09:33:51.000Z</time>
        <extensions>
          <ns3:TrackPointExtension>
            <ns3:atemp>26.0</ns3:atemp>
            <ns3:hr>136</ns3:hr>
          </ns3:TrackPointExtension>
        </extensions>
      </trkpt>
      <trkpt lat="55.46146751381456851959228515625" lon="37.6040498726069927215576171875">
        <ele>145</ele>
        <time>2026-02-25T09:33:52.000Z</time>
        <extensions>
          <ns3:TrackPointExtension>
            <ns3:atemp>26.0</ns3:atemp>
            <ns3:hr>136</ns3:hr>
          </ns3:TrackPointExtension>
        </extensions>
      </trkpt>
      <trkpt lat="55.46151294372975826263427734375" lon="37.60396881960332393646240234375">
        <ele>144.8000030517578125</ele>
        <time>2026-02-25T09:33:53.000Z</time>
        <extensions>
          <ns3:TrackPointExtension>
            <ns3:atemp>26.0</ns3:atemp>
            <ns3:hr>136</ns3:hr>
          </ns3:TrackPointExtension>
        </extensions>
      </trkpt>
      <trkpt lat="55.46150942333042621612548828125" lon="37.60393805801868438720703125">
        <ele>144.600006103515625</ele>
        <time>2026-02-25T09:33:54.000Z</time>
        <extensions>
          <ns3:TrackPointExtension>
            <ns3:atemp>26.0</ns3:atemp>
            <ns3:hr>136</ns3:hr>
          </ns3:TrackPointExtension>
        </extensions>
      </trkpt>
      <trkpt lat="55.46150540001690387725830078125" lon="37.60390930809080600738525390625">
        <ele>144.600006103515625</ele>
        <time>2026-02-25T09:33:55.000Z</time>
        <extensions>
          <ns3:TrackPointExtension>
            <ns3:atemp>26.0</ns3:atemp>
            <ns3:hr>136</ns3:hr>
          </ns3:TrackPointExtension>
        </extensions>
      </trkpt>
      <trkpt lat="55.4615517519414424896240234375" lon="37.6036141812801361083984375">
        <ele>144.399993896484375</ele>
        <time>2026-02-25T09:33:56.000Z</time>
        <extensions>
          <ns3:TrackPointExtension>
            <ns3:atemp>26.0</ns3:atemp>
            <ns3:hr>136</ns3:hr>
          </ns3:TrackPointExtension>
        </extensions>
      </trkpt>
      <trkpt lat="55.4616335593163967132568359375" lon="37.6034812442958354949951171875">
        <ele>144.399993896484375</ele>
        <time>2026-02-25T09:33:57.000Z</time>
        <extensions>
          <ns3:TrackPointExtension>
            <ns3:atemp>26.0</ns3:atemp>
            <ns3:hr>136</ns3:hr>
          </ns3:TrackPointExtension>
        </extensions>
      </trkpt>
      <trkpt lat="55.4616794921457767486572265625" lon="37.60284530930221080780029296875">
        <ele>144.399993896484375</ele>
        <time>2026-02-25T09:33:58.000Z</time>
        <extensions>
          <ns3:TrackPointExtension>
            <ns3:atemp>26.0</ns3:atemp>
            <ns3:hr>136</ns3:hr>
          </ns3:TrackPointExtension>
        </extensions>
      </trkpt>
      <trkpt lat="55.46169399283826351165771484375" lon="37.6027979515492916107177734375">
        <ele>144.399993896484375</ele>
        <time>2026-02-25T09:33:59.000Z</time>
        <extensions>
          <ns3:TrackPointExtension>
            <ns3:atemp>26.0</ns3:atemp>
            <ns3:hr>136</ns3:hr>
          </ns3:TrackPointExtension>
        </extensions>
      </trkpt>
      <trkpt lat="55.4616855271160602569580078125" lon="37.60311403311789035797119140625">
        <ele>144.600006103515625</ele>
        <time>2026-02-25T09:34:00.000Z</time>
        <extensions>
          <ns3:TrackPointExtension>
            <ns3:atemp>26.0</ns3:atemp>
            <ns3:hr>136</ns3:hr>
          </ns3:TrackPointExtension>
        </extensions>
      </trkpt>
      <trkpt lat="55.461561642587184906005859375" lon="37.60392741300165653228759765625">
        <ele>144.399993896484375</ele>
        <time>2026-02-25T09:34:01.000Z</time>
        <extensions>
          <ns3:TrackPointExtension>
            <ns3:atemp>26.0</ns3:atemp>
            <ns3:hr>135</ns3:hr>
          </ns3:TrackPointExtension>
        </extensions>
      </trkpt>
      <trkpt lat="55.46155837364494800567626953125" lon="37.6038953103125095367431640625">
        <ele>144.399993896484375</ele>
        <time>2026-02-25T09:34:02.000Z</time>
        <extensions>
          <ns3:TrackPointExtension>
            <ns3:atemp>26.0</ns3:atemp>
            <ns3:hr>135</ns3:hr>
          </ns3:TrackPointExtension>
        </extensions>
      </trkpt>
      <trkpt lat="55.4615557752549648284912109375" lon="37.603869996964931488037109375">
        <ele>144.399993896484375</ele>
        <time>2026-02-25T09:34:03.000Z</time>
        <extensions>
          <ns3:TrackPointExtension>
            <ns3:atemp>26.0</ns3:atemp>
            <ns3:hr>136</ns3:hr>
          </ns3:TrackPointExtension>
        </extensions>
      </trkpt>
      <trkpt lat="55.46148545108735561370849609375" lon="37.603866644203662872314453125">
        <ele>144.1999969482421875</ele>
        <time>2026-02-25T09:34:04.000Z</time>
        <extensions>
          <ns3:TrackPointExtension>
            <ns3:atemp>26.0</ns3:atemp>
            <ns3:hr>137</ns3:hr>
          </ns3:TrackPointExtension>
        </extensions>
      </trkpt>
      <trkpt lat="55.461519062519073486328125" lon="37.60371451266109943389892578125">
        <ele>144.1999969482421875</ele>
        <time>2026-02-25T09:34:05.000Z</time>
        <extensions>
          <ns3:TrackPointExtension>
            <ns3:atemp>26.0</ns3:atemp>
            <ns3:hr>137</ns3:hr>
          </ns3:TrackPointExtension>
        </extensions>
      </trkpt>
      <trkpt lat="55.461589135229587554931640625" lon="37.603417374193668365478515625">
        <ele>144.1999969482421875</ele>
        <time>2026-02-25T09:34:06.000Z</time>
        <extensions>
          <ns3:TrackPointExtension>
            <ns3:atemp>26.0</ns3:atemp>
            <ns3:hr>137</ns3:hr>
          </ns3:TrackPointExtension>
        </extensions>
      </trkpt>
      <trkpt lat="55.4615802504122257232666015625" lon="37.60333363898098468780517578125">
        <ele>144.1999969482421875</ele>
        <time>2026-02-25T09:34:07.000Z</time>
        <extensions>
          <ns3:TrackPointExtension>
            <ns3:atemp>26.0</ns3:atemp>
            <ns3:hr>137</ns3:hr>
          </ns3:TrackPointExtension>
        </extensions>
      </trkpt>
      <trkpt lat="55.4615715332329273223876953125" lon="37.60328971780836582183837890625">
        <ele>144.1999969482421875</ele>
        <time>2026-02-25T09:34:08.000Z</time>
        <extensions>
          <ns3:TrackPointExtension>
            <ns3:atemp>26.0</ns3:atemp>
            <ns3:hr>138</ns3:hr>
          </ns3:TrackPointExtension>
        </extensions>
      </trkpt>
      <trkpt lat="55.46159642748534679412841796875" lon="37.60412723757326602935791015625">
        <ele>144.399993896484375</ele>
        <time>2026-02-25T09:34:09.000Z</time>
        <extensions>
          <ns3:TrackPointExtension>
            <ns3:atemp>26.0</ns3:atemp>
            <ns3:hr>138</ns3:hr>
          </ns3:TrackPointExtension>
        </extensions>
      </trkpt>
      <trkpt lat="55.46170572750270366668701171875" lon="37.6044537127017974853515625">
        <ele>144.399993896484375</ele>
        <time>2026-02-25T09:34:10.000Z</time>
        <extensions>
          <ns3:TrackPointExtension>
            <ns3:atemp>26.0</ns3:atemp>
            <ns3:hr>138</ns3:hr>
          </ns3:TrackPointExtension>
        </extensions>
      </trkpt>
      <trkpt lat="55.46178082935512065887451171875" lon="37.60432672686874866485595703125">
        <ele>144.399993896484375</ele>
        <time>2026-02-25T09:34:11.000Z</time>
        <extensions>
          <ns3:TrackPointExtension>
            <ns3:atemp>26.0</ns3:atemp>
            <ns3:hr>138</ns3:hr>
          </ns3:TrackPointExtension>
        </extensions>
      </trkpt>
      <trkpt lat="55.4618461243808269500732421875" lon="37.60403520427644252777099609375">
        <ele>144.399993896484375</ele>
        <time>2026-02-25T09:34:12.000Z</time>
        <extensions>
          <ns3:TrackPointExtension>
            <ns3:atemp>26.0</ns3:atemp>
            <ns3:hr>138</ns3:hr>
          </ns3:TrackPointExtension>
        </extensions>
      </trkpt>
      <trkpt lat="55.461923740804195404052734375" lon="37.60408499278128147125244140625">
        <ele>144.399993896484375</ele>
        <time>2026-02-25T09:34:13.000Z</time>
        <extensions>
          <ns3:TrackPointExtension>
            <ns3:atemp>25.0</ns3:atemp>
            <ns3:hr>138</ns3:hr>
          </ns3:TrackPointExtension>
        </extensions>
      </trkpt>
      <trkpt lat="55.46193555928766727447509765625" lon="37.604022212326526641845703125">
        <ele>144.399993896484375</ele>
        <time>2026-02-25T09:34:14.000Z</time>
        <extensions>
          <ns3:TrackPointExtension>
            <ns3:atemp>25.0</ns3:atemp>
            <ns3:hr>139</ns3:hr>
          </ns3:TrackPointExtension>
        </extensions>
      </trkpt>
      <trkpt lat="55.46193413436412811279296875" lon="37.6040126569569110870361328125">
        <ele>144.1999969482421875</ele>
        <time>2026-02-25T09:34:15.000Z</time>
        <extensions>
          <ns3:TrackPointExtension>
            <ns3:atemp>25.0</ns3:atemp>
            <ns3:hr>138</ns3:hr>
          </ns3:TrackPointExtension>
        </extensions>
      </trkpt>
      <trkpt lat="55.46193203888833522796630859375" lon="37.604000754654407501220703125">
        <ele>144.1999969482421875</ele>
        <time>2026-02-25T09:34:16.000Z</time>
        <extensions>
          <ns3:TrackPointExtension>
            <ns3:atemp>25.0</ns3:atemp>
            <ns3:hr>137</ns3:hr>
          </ns3:TrackPointExtension>
        </extensions>
      </trkpt>
      <trkpt lat="55.46193203888833522796630859375" lon="37.604000754654407501220703125">
        <ele>144.399993896484375</ele>
        <time>2026-02-25T09:34:17.000Z</time>
        <extensions>
          <ns3:TrackPointExtension>
            <ns3:atemp>25.0</ns3:atemp>
            <ns3:hr>137</ns3:hr>
          </ns3:TrackPointExtension>
        </extensions>
      </trkpt>
      <trkpt lat="55.462042428553104400634765625" lon="37.60431415401399135589599609375">
        <ele>144.600006103515625</ele>
        <time>2026-02-25T09:34:18.000Z</time>
        <extensions>
          <ns3:TrackPointExtension>
            <ns3:atemp>25.0</ns3:atemp>
            <ns3:hr>136</ns3:hr>
          </ns3:TrackPointExtension>
        </extensions>
      </trkpt>
      <trkpt lat="55.46209238469600677490234375" lon="37.6044465042650699615478515625">
        <ele>144.8000030517578125</ele>
        <time>2026-02-25T09:34:19.000Z</time>
        <extensions>
          <ns3:TrackPointExtension>
            <ns3:atemp>25.0</ns3:atemp>
            <ns3:hr>135</ns3:hr>
          </ns3:TrackPointExtension>
        </extensions>
      </trkpt>
      <trkpt lat="55.4621884413063526153564453125" lon="37.604548931121826171875">
        <ele>145</ele>
        <time>2026-02-25T09:34:20.000Z</time>
        <extensions>
          <ns3:TrackPointExtension>
            <ns3:atemp>25.0</ns3:atemp>
            <ns3:hr>135</ns3:hr>
          </ns3:TrackPointExtension>
        </extensions>
      </trkpt>
      <trkpt lat="55.46220839023590087890625" lon="37.604527808725833892822265625">
        <ele>145.1999969482421875</ele>
        <time>2026-02-25T09:34:21.000Z</time>
        <extensions>
          <ns3:TrackPointExtension>
            <ns3:atemp>25.0</ns3:atemp>
            <ns3:hr>134</ns3:hr>
          </ns3:TrackPointExtension>
        </extensions>
      </trkpt>
      <trkpt lat="55.46220528893172740936279296875" lon="37.60448925197124481201171875">
        <ele>145.399993896484375</ele>
        <time>2026-02-25T09:34:22.000Z</time>
        <extensions>
          <ns3:TrackPointExtension>
            <ns3:atemp>25.0</ns3:atemp>
            <ns3:hr>133</ns3:hr>
          </ns3:TrackPointExtension>
        </extensions>
      </trkpt>
      <trkpt lat="55.46220629476010799407958984375" lon="37.60444977320730686187744140625">
        <ele>145.399993896484375</ele>
        <time>2026-02-25T09:34:23.000Z</time>
        <extensions>
          <ns3:TrackPointExtension>
            <ns3:atemp>25.0</ns3:atemp>
            <ns3:hr>132</ns3:hr>
          </ns3:TrackPointExtension>
        </extensions>
      </trkpt>
      <trkpt lat="55.462205372750759124755859375" lon="37.6044188439846038818359375">
        <ele>145.399993896484375</ele>
        <time>2026-02-25T09:34:24.000Z</time>
        <extensions>
          <ns3:TrackPointExtension>
            <ns3:atemp>25.0</ns3:atemp>
            <ns3:hr>132</ns3:hr>
          </ns3:TrackPointExtension>
        </extensions>
      </trkpt>
      <trkpt lat="55.46220512129366397857666015625" lon="37.60439411737024784088134765625">
        <ele>145.399993896484375</ele>
        <time>2026-02-25T09:34:25.000Z</time>
        <extensions>
          <ns3:TrackPointExtension>
            <ns3:atemp>25.0</ns3:atemp>
            <ns3:hr>132</ns3:hr>
          </ns3:TrackPointExtension>
        </extensions>
      </trkpt>
      <trkpt lat="55.46213655732572078704833984375" lon="37.60426570661365985870361328125">
        <ele>145.1999969482421875</ele>
        <time>2026-02-25T09:34:26.000Z</time>
        <extensions>
          <ns3:TrackPointExtension>
            <ns3:atemp>25.0</ns3:atemp>
            <ns3:hr>132</ns3:hr>
          </ns3:TrackPointExtension>
        </extensions>
      </trkpt>
      <trkpt lat="55.4621297679841518402099609375" lon="37.60423402301967144012451171875">
        <ele>145</ele>
        <time>2026-02-25T09:34:27.000Z</time>
        <extensions>
          <ns3:TrackPointExtension>
            <ns3:atemp>25.0</ns3:atemp>
            <ns3:hr>131</ns3:hr>
          </ns3:TrackPointExtension>
        </extensions>
      </trkpt>
      <trkpt lat="55.46210906468331813812255859375" lon="37.60382330976426601409912109375">
        <ele>144.8000030517578125</ele>
        <time>2026-02-25T09:34:28.000Z</time>
        <extensions>
          <ns3:TrackPointExtension>
            <ns3:atemp>25.0</ns3:atemp>
            <ns3:hr>131</ns3:hr>
          </ns3:TrackPointExtension>
        </extensions>
      </trkpt>
      <trkpt lat="55.4620891995728015899658203125" lon="37.6037702523171901702880859375">
        <ele>144.8000030517578125</ele>
        <time>2026-02-25T09:34:29.000Z</time>
        <extensions>
          <ns3:TrackPointExtension>
            <ns3:atemp>25.0</ns3:atemp>
            <ns3:hr>131</ns3:hr>
          </ns3:TrackPointExtension>
        </extensions>
      </trkpt>
      <trkpt lat="55.46206614933907985687255859375" lon="37.6037169434130191802978515625">
        <ele>144.8000030517578125</ele>
        <time>2026-02-25T09:34:30.000Z</time>
        <extensions>
          <ns3:TrackPointExtension>
            <ns3:atemp>25.0</ns3:atemp>
            <ns3:hr>131</ns3:hr>
          </ns3:TrackPointExtension>
        </extensions>
      </trkpt>
      <trkpt lat="55.46213052235543727874755859375" lon="37.603864967823028564453125">
        <ele>145</ele>
        <time>2026-02-25T09:34:31.000Z</time>
        <extensions>
          <ns3:TrackPointExtension>
            <ns3:atemp>25.0</ns3:atemp>
            <ns3:hr>130</ns3:hr>
          </ns3:TrackPointExtension>
        </extensions>
      </trkpt>
      <trkpt lat="55.4620943963527679443359375" lon="37.603784501552581787109375">
        <ele>145.1999969482421875</ele>
        <time>2026-02-25T09:34:32.000Z</time>
        <extensions>
          <ns3:TrackPointExtension>
            <ns3:atemp>25.0</ns3:atemp>
            <ns3:hr>130</ns3:hr>
          </ns3:TrackPointExtension>
        </extensions>
      </trkpt>
      <trkpt lat="55.46194243244826793670654296875" lon="37.60402263142168521881103515625">
        <ele>145.1999969482421875</ele>
        <time>2026-02-25T09:34:33.000Z</time>
        <extensions>
          <ns3:TrackPointExtension>
            <ns3:atemp>25.0</ns3:atemp>
            <ns3:hr>131</ns3:hr>
          </ns3:TrackPointExtension>
        </extensions>
      </trkpt>
      <trkpt lat="55.462020300328731536865234375" lon="37.60403805412352085113525390625">
        <ele>145.399993896484375</ele>
        <time>2026-02-25T09:34:34.000Z</time>
        <extensions>
          <ns3:TrackPointExtension>
            <ns3:atemp>25.0</ns3:atemp>
            <ns3:hr>131</ns3:hr>
          </ns3:TrackPointExtension>
        </extensions>
      </trkpt>
      <trkpt lat="55.4619433544576168060302734375" lon="37.603831775486469268798828125">
        <ele>145.600006103515625</ele>
        <time>2026-02-25T09:34:35.000Z</time>
        <extensions>
          <ns3:TrackPointExtension>
            <ns3:atemp>25.0</ns3:atemp>
            <ns3:hr>131</ns3:hr>
          </ns3:TrackPointExtension>
        </extensions>
      </trkpt>
      <trkpt lat="55.461929775774478912353515625" lon="37.6037860102951526641845703125">
        <ele>145.600006103515625</ele>
        <time>2026-02-25T09:34:36.000Z</time>
        <extensions>
          <ns3:TrackPointExtension>
            <ns3:atemp>25.0</ns3:atemp>
            <ns3:hr>131</ns3:hr>
          </ns3:TrackPointExtension>
        </extensions>
      </trkpt>
      <trkpt lat="55.46192114241421222686767578125" lon="37.60375156067311763763427734375">
        <ele>145.600006103515625</ele>
        <time>2026-02-25T09:34:37.000Z</time>
        <extensions>
          <ns3:TrackPointExtension>
            <ns3:atemp>25.0</ns3:atemp>
            <ns3:hr>132</ns3:hr>
          </ns3:TrackPointExtension>
        </extensions>
      </trkpt>
      <trkpt lat="55.46191259287297725677490234375" lon="37.60372222401201725006103515625">
        <ele>145.600006103515625</ele>
        <time>2026-02-25T09:34:38.000Z</time>
        <extensions>
          <ns3:TrackPointExtension>
            <ns3:atemp>25.0</ns3:atemp>
            <ns3:hr>131</ns3:hr>
          </ns3:TrackPointExtension>
        </extensions>
      </trkpt>
      <trkpt lat="55.4619054682552814483642578125" lon="37.603698335587978363037109375">
        <ele>145.8000030517578125</ele>
        <time>2026-02-25T09:34:39.000Z</time>
        <extensions>
          <ns3:TrackPointExtension>
            <ns3:atemp>25.0</ns3:atemp>
            <ns3:hr>129</ns3:hr>
          </ns3:TrackPointExtension>
        </extensions>
      </trkpt>
      <trkpt lat="55.4618984274566173553466796875" lon="37.60367511771619319915771484375">
        <ele>146</ele>
        <time>2026-02-25T09:34:40.000Z</time>
        <extensions>
          <ns3:TrackPointExtension>
            <ns3:atemp>25.0</ns3:atemp>
            <ns3:hr>128</ns3:hr>
          </ns3:TrackPointExtension>
        </extensions>
      </trkpt>
      <trkpt lat="55.4618984274566173553466796875" lon="37.60367511771619319915771484375">
        <ele>146</ele>
        <time>2026-02-25T09:34:41.000Z</time>
        <extensions>
          <ns3:TrackPointExtension>
            <ns3:atemp>25.0</ns3:atemp>
            <ns3:hr>128</ns3:hr>
          </ns3:TrackPointExtension>
        </extensions>
      </trkpt>
    </trkseg>
  </trk>
</gpx>
