<?xml version="1.0" encoding="UTF-8"?>
<gpx creator="Garmin Connect" version="1.1"
  xsi:schemaLocation="http://www.topografix.com/GPX/1/1 http://www.topografix.com/GPX/11.xsd"
  xmlns:ns3="http://www.garmin.com/xmlschemas/TrackPointExtension/v1"
  xmlns="http://www.topografix.com/GPX/1/1"
  xmlns:xsi="http://www.w3.org/2001/XMLSchema-instance" xmlns:ns2="http://www.garmin.com/xmlschemas/GpxExtensions/v3">
  <metadata>
    <link href="connect.garmin.com">
      <text>Garmin Connect</text>
    </link>
    <time>2026-02-25T09:41:35.000Z</time>
  </metadata>
  <trk>
    <name>Домодедово Мультитренировка</name>
    <type>multi_sport</type>
    <trkseg>
      <trkpt lat="55.43054952286183834075927734375" lon="37.7555145509541034698486328125">
        <ele>157.1999969482421875</ele>
        <time>2026-02-25T09:41:35.000Z</time>
        <extensions>
          <ns3:TrackPointExtension>
            <ns3:atemp>19.0</ns3:atemp>
            <ns3:hr>63</ns3:hr>
          </ns3:TrackPointExtension>
        </extensions>
      </trkpt>
      <trkpt lat="55.4305403865873813629150390625" lon="37.75552603416144847869873046875">
        <ele>157.1999969482421875</ele>
        <time>2026-02-25T09:41:36.000Z</time>
        <extensions>
          <ns3:TrackPointExtension>
            <ns3:atemp>19.0</ns3:atemp>
            <ns3:hr>68</ns3:hr>
          </ns3:TrackPointExtension>
        </extensions>
      </trkpt>
      <trkpt lat="55.4305408895015716552734375" lon="37.7554914169013500213623046875">
        <ele>157.1999969482421875</ele>
        <time>2026-02-25T09:41:37.000Z</time>
        <extensions>
          <ns3:TrackPointExtension>
            <ns3:atemp>19.0</ns3:atemp>
            <ns3:hr>68</ns3:hr>
          </ns3:TrackPointExtension>
        </extensions>
      </trkpt>
      <trkpt lat="55.43053510598838329315185546875" lon="37.75545059703290462493896484375">
        <ele>157</ele>
        <time>2026-02-25T09:41:38.000Z</time>
        <extensions>
          <ns3:TrackPointExtension>
            <ns3:atemp>19.0</ns3:atemp>
            <ns3:hr>69</ns3:hr>
          </ns3:TrackPointExtension>
        </extensions>
      </trkpt>
      <trkpt lat="55.43053527362644672393798828125" lon="37.75541589595377445220947265625">
        <ele>157</ele>
        <time>2026-02-25T09:41:39.000Z</time>
        <extensions>
          <ns3:TrackPointExtension>
            <ns3:atemp>19.0</ns3:atemp>
            <ns3:hr>70</ns3:hr>
          </ns3:TrackPointExtension>
        </extensions>
      </trkpt>
      <trkpt lat="55.43054415844380855560302734375" lon="37.75536912493407726287841796875">
        <ele>156.8000030517578125</ele>
        <time>2026-02-25T09:41:40.000Z</time>
        <extensions>
          <ns3:TrackPointExtension>
            <ns3:atemp>19.0</ns3:atemp>
            <ns3:hr>72</ns3:hr>
          </ns3:TrackPointExtension>
        </extensions>
      </trkpt>
      <trkpt lat="55.430554635822772979736328125" lon="37.75533895008265972137451171875">
        <ele>156.600006103515625</ele>
        <time>2026-02-25T09:41:41.000Z</time>
        <extensions>
          <ns3:TrackPointExtension>
            <ns3:atemp>19.0</ns3:atemp>
            <ns3:hr>73</ns3:hr>
          </ns3:TrackPointExtension>
        </extensions>
      </trkpt>
      <trkpt lat="55.4305735789239406585693359375" lon="37.755298130214214324951171875">
        <ele>156.600006103515625</ele>
        <time>2026-02-25T09:41:42.000Z</time>
        <extensions>
          <ns3:TrackPointExtension>
            <ns3:atemp>19.0</ns3:atemp>
            <ns3:hr>75</ns3:hr>
          </ns3:TrackPointExtension>
        </extensions>
      </trkpt>
      <trkpt lat="55.43058673851191997528076171875" lon="37.75525948964059352874755859375">
        <ele>156.600006103515625</ele>
        <time>2026-02-25T09:41:43.000Z</time>
        <extensions>
          <ns3:TrackPointExtension>
            <ns3:atemp>19.0</ns3:atemp>
            <ns3:hr>76</ns3:hr>
          </ns3:TrackPointExtension>
        </extensions>
      </trkpt>
      <trkpt lat="55.43060299940407276153564453125" lon="37.75521934032440185546875">
        <ele>156.600006103515625</ele>
        <time>2026-02-25T09:41:44.000Z</time>
        <extensions>
          <ns3:TrackPointExtension>
            <ns3:atemp>19.0</ns3:atemp>
            <ns3:hr>79</ns3:hr>
          </ns3:TrackPointExtension>
        </extensions>
      </trkpt>
      <trkpt lat="55.43062076903879642486572265625" lon="37.75518991984426975250244140625">
        <ele>156.8000030517578125</ele>
        <time>2026-02-25T09:41:45.000Z</time>
        <extensions>
          <ns3:TrackPointExtension>
            <ns3:atemp>19.0</ns3:atemp>
            <ns3:hr>81</ns3:hr>
          </ns3:TrackPointExtension>
        </extensions>
      </trkpt>
      <trkpt lat="55.43062915094196796417236328125" lon="37.755139879882335662841796875">
        <ele>156.8000030517578125</ele>
        <time>2026-02-25T09:41:46.000Z</time>
        <extensions>
          <ns3:TrackPointExtension>
            <ns3:atemp>19.0</ns3:atemp>
            <ns3:hr>83</ns3:hr>
          </ns3:TrackPointExtension>
        </extensions>
      </trkpt>
      <trkpt lat="55.430636443197727203369140625" lon="37.7550988085567951202392578125">
        <ele>156.8000030517578125</ele>
        <time>2026-02-25T09:41:47.000Z</time>
        <extensions>
          <ns3:TrackPointExtension>
            <ns3:atemp>19.0</ns3:atemp>
            <ns3:hr>85</ns3:hr>
          </ns3:TrackPointExtension>
        </extensions>
      </trkpt>
      <trkpt lat="55.43063770048320293426513671875" lon="37.7550622634589672088623046875">
        <ele>156.8000030517578125</ele>
        <time>2026-02-25T09:41:48.000Z</time>
        <extensions>
          <ns3:TrackPointExtension>
            <ns3:atemp>19.0</ns3:atemp>
            <ns3:hr>86</ns3:hr>
          </ns3:TrackPointExtension>
        </extensions>
      </trkpt>
      <trkpt lat="55.43064557947218418121337890625" lon="37.755015157163143157958984375">
        <ele>156.8000030517578125</ele>
        <time>2026-02-25T09:41:49.000Z</time>
        <extensions>
          <ns3:TrackPointExtension>
            <ns3:atemp>19.0</ns3:atemp>
            <ns3:hr>88</ns3:hr>
          </ns3:TrackPointExtension>
        </extensions>
      </trkpt>
      <trkpt lat="55.43064725585281848907470703125" lon="37.7549744211137294769287109375">
        <ele>156.8000030517578125</ele>
        <time>2026-02-25T09:41:50.000Z</time>
        <extensions>
          <ns3:TrackPointExtension>
            <ns3:atemp>19.0</ns3:atemp>
            <ns3:hr>90</ns3:hr>
          </ns3:TrackPointExtension>
        </extensions>
      </trkpt>
      <trkpt lat="55.43065127916634082794189453125" lon="37.754926644265651702880859375">
        <ele>156.8000030517578125</ele>
        <time>2026-02-25T09:41:51.000Z</time>
        <extensions>
          <ns3:TrackPointExtension>
            <ns3:atemp>19.0</ns3:atemp>
            <ns3:hr>91</ns3:hr>
          </ns3:TrackPointExtension>
        </extensions>
      </trkpt>
      <trkpt lat="55.43065044097602367401123046875" lon="37.75488599203526973724365234375">
        <ele>156.8000030517578125</ele>
        <time>2026-02-25T09:41:52.000Z</time>
        <extensions>
          <ns3:TrackPointExtension>
            <ns3:atemp>19.0</ns3:atemp>
            <ns3:hr>92</ns3:hr>
          </ns3:TrackPointExtension>
        </extensions>
      </trkpt>
      <trkpt lat="55.43065228499472141265869140625" lon="37.75483503006398677825927734375">
        <ele>156.8000030517578125</ele>
        <time>2026-02-25T09:41:53.000Z</time>
        <extensions>
          <ns3:TrackPointExtension>
            <ns3:atemp>19.0</ns3:atemp>
            <ns3:hr>94</ns3:hr>
          </ns3:TrackPointExtension>
        </extensions>
      </trkpt>
      <trkpt lat="55.4306567274034023284912109375" lon="37.75478976778686046600341796875">
        <ele>157</ele>
        <time>2026-02-25T09:41:54.000Z</time>
        <extensions>
          <ns3:TrackPointExtension>
            <ns3:atemp>19.0</ns3:atemp>
            <ns3:hr>95</ns3:hr>
          </ns3:TrackPointExtension>
        </extensions>
      </trkpt>
      <trkpt lat="55.43065899051725864410400390625" lon="37.754742242395877838134765625">
        <ele>157</ele>
        <time>2026-02-25T09:41:55.000Z</time>
        <extensions>
          <ns3:TrackPointExtension>
            <ns3:atemp>19.0</ns3:atemp>
            <ns3:hr>96</ns3:hr>
          </ns3:TrackPointExtension>
        </extensions>
      </trkpt>
      <trkpt lat="55.43066225945949554443359375" lon="37.7546911127865314483642578125">
        <ele>157</ele>
        <time>2026-02-25T09:41:56.000Z</time>
        <extensions>
          <ns3:TrackPointExtension>
            <ns3:atemp>19.0</ns3:atemp>
            <ns3:hr>97</ns3:hr>
          </ns3:TrackPointExtension>
        </extensions>
      </trkpt>
      <trkpt lat="55.4306620918214321136474609375" lon="37.75464911945164203643798828125">
        <ele>157</ele>
        <time>2026-02-25T09:41:57.000Z</time>
        <extensions>
          <ns3:TrackPointExtension>
            <ns3:atemp>19.0</ns3:atemp>
            <ns3:hr>98</ns3:hr>
          </ns3:TrackPointExtension>
        </extensions>
      </trkpt>
      <trkpt lat="55.43066871352493762969970703125" lon="37.7546025998890399932861328125">
        <ele>157</ele>
        <time>2026-02-25T09:41:58.000Z</time>
        <extensions>
          <ns3:TrackPointExtension>
            <ns3:atemp>19.0</ns3:atemp>
            <ns3:hr>100</ns3:hr>
          </ns3:TrackPointExtension>
        </extensions>
      </trkpt>
      <trkpt lat="55.4306701384484767913818359375" lon="37.75456286966800689697265625">
        <ele>157</ele>
        <time>2026-02-25T09:41:59.000Z</time>
        <extensions>
          <ns3:TrackPointExtension>
            <ns3:atemp>19.0</ns3:atemp>
            <ns3:hr>101</ns3:hr>
          </ns3:TrackPointExtension>
        </extensions>
      </trkpt>
      <trkpt lat="55.43067709542810916900634765625" lon="37.75451400317251682281494140625">
        <ele>157</ele>
        <time>2026-02-25T09:42:00.000Z</time>
        <extensions>
          <ns3:TrackPointExtension>
            <ns3:atemp>19.0</ns3:atemp>
            <ns3:hr>102</ns3:hr>
          </ns3:TrackPointExtension>
        </extensions>
      </trkpt>
      <trkpt lat="55.4306781850755214691162109375" lon="37.7544741891324520111083984375">
        <ele>157</ele>
        <time>2026-02-25T09:42:01.000Z</time>
        <extensions>
          <ns3:TrackPointExtension>
            <ns3:atemp>19.0</ns3:atemp>
            <ns3:hr>103</ns3:hr>
          </ns3:TrackPointExtension>
        </extensions>
      </trkpt>
      <trkpt lat="55.430677346885204315185546875" lon="37.7544212155044078826904296875">
        <ele>157</ele>
        <time>2026-02-25T09:42:02.000Z</time>
        <extensions>
          <ns3:TrackPointExtension>
            <ns3:atemp>19.0</ns3:atemp>
            <ns3:hr>105</ns3:hr>
          </ns3:TrackPointExtension>
        </extensions>
      </trkpt>
      <trkpt lat="55.4306768439710140228271484375" lon="37.75438182055950164794921875">
        <ele>156.8000030517578125</ele>
        <time>2026-02-25T09:42:03.000Z</time>
        <extensions>
          <ns3:TrackPointExtension>
            <ns3:atemp>19.0</ns3:atemp>
            <ns3:hr>106</ns3:hr>
          </ns3:TrackPointExtension>
        </extensions>
      </trkpt>
      <trkpt lat="55.43068313039839267730712890625" lon="37.75433194823563098907470703125">
        <ele>156.8000030517578125</ele>
        <time>2026-02-25T09:42:04.000Z</time>
        <extensions>
          <ns3:TrackPointExtension>
            <ns3:atemp>19.0</ns3:atemp>
            <ns3:hr>107</ns3:hr>
          </ns3:TrackPointExtension>
        </extensions>
      </trkpt>
      <trkpt lat="55.430689752101898193359375" lon="37.7542887814342975616455078125">
        <ele>156.600006103515625</ele>
        <time>2026-02-25T09:42:05.000Z</time>
        <extensions>
          <ns3:TrackPointExtension>
            <ns3:atemp>19.0</ns3:atemp>
            <ns3:hr>108</ns3:hr>
          </ns3:TrackPointExtension>
        </extensions>
      </trkpt>
      <trkpt lat="55.43069201521575450897216796875" lon="37.75424360297620296478271484375">
        <ele>156.399993896484375</ele>
        <time>2026-02-25T09:42:06.000Z</time>
        <extensions>
          <ns3:TrackPointExtension>
            <ns3:atemp>19.0</ns3:atemp>
            <ns3:hr>109</ns3:hr>
          </ns3:TrackPointExtension>
        </extensions>
      </trkpt>
      <trkpt lat="55.4306964576244354248046875" lon="37.7541942335665225982666015625">
        <ele>156.399993896484375</ele>
        <time>2026-02-25T09:42:07.000Z</time>
        <extensions>
          <ns3:TrackPointExtension>
            <ns3:atemp>19.0</ns3:atemp>
            <ns3:hr>111</ns3:hr>
          </ns3:TrackPointExtension>
        </extensions>
      </trkpt>
      <trkpt lat="55.43069779872894287109375" lon="37.7541504800319671630859375">
        <ele>156.399993896484375</ele>
        <time>2026-02-25T09:42:08.000Z</time>
        <extensions>
          <ns3:TrackPointExtension>
            <ns3:atemp>19.0</ns3:atemp>
            <ns3:hr>112</ns3:hr>
          </ns3:TrackPointExtension>
        </extensions>
      </trkpt>
      <trkpt lat="55.4306989721953868865966796875" lon="37.75409859605133533477783203125">
        <ele>156.399993896484375</ele>
        <time>2026-02-25T09:42:09.000Z</time>
        <extensions>
          <ns3:TrackPointExtension>
            <ns3:atemp>19.0</ns3:atemp>
            <ns3:hr>113</ns3:hr>
          </ns3:TrackPointExtension>
        </extensions>
      </trkpt>
      <trkpt lat="55.43069955892860889434814453125" lon="37.75405350141227245330810546875">
        <ele>156.399993896484375</ele>
        <time>2026-02-25T09:42:10.000Z</time>
        <extensions>
          <ns3:TrackPointExtension>
            <ns3:atemp>19.0</ns3:atemp>
            <ns3:hr>114</ns3:hr>
          </ns3:TrackPointExtension>
        </extensions>
      </trkpt>
      <trkpt lat="55.43070517480373382568359375" lon="37.7540034614503383636474609375">
        <ele>156.600006103515625</ele>
        <time>2026-02-25T09:42:11.000Z</time>
        <extensions>
          <ns3:TrackPointExtension>
            <ns3:atemp>19.0</ns3:atemp>
            <ns3:hr>115</ns3:hr>
          </ns3:TrackPointExtension>
        </extensions>
      </trkpt>
      <trkpt lat="55.43070760555565357208251953125" lon="37.753957025706768035888671875">
        <ele>156.600006103515625</ele>
        <time>2026-02-25T09:42:12.000Z</time>
        <extensions>
          <ns3:TrackPointExtension>
            <ns3:atemp>19.0</ns3:atemp>
            <ns3:hr>116</ns3:hr>
          </ns3:TrackPointExtension>
        </extensions>
      </trkpt>
      <trkpt lat="55.43070894666016101837158203125" lon="37.75391117669641971588134765625">
        <ele>156.600006103515625</ele>
        <time>2026-02-25T09:42:13.000Z</time>
        <extensions>
          <ns3:TrackPointExtension>
            <ns3:atemp>19.0</ns3:atemp>
            <ns3:hr>116</ns3:hr>
          </ns3:TrackPointExtension>
        </extensions>
      </trkpt>
      <trkpt lat="55.43071431107819080352783203125" lon="37.7538643218576908111572265625">
        <ele>156.600006103515625</ele>
        <time>2026-02-25T09:42:14.000Z</time>
        <extensions>
          <ns3:TrackPointExtension>
            <ns3:atemp>19.0</ns3:atemp>
            <ns3:hr>117</ns3:hr>
          </ns3:TrackPointExtension>
        </extensions>
      </trkpt>
      <trkpt lat="55.43071799911558628082275390625" lon="37.7538232505321502685546875">
        <ele>156.600006103515625</ele>
        <time>2026-02-25T09:42:15.000Z</time>
        <extensions>
          <ns3:TrackPointExtension>
            <ns3:atemp>19.0</ns3:atemp>
            <ns3:hr>118</ns3:hr>
          </ns3:TrackPointExtension>
        </extensions>
      </trkpt>
      <trkpt lat="55.43072604574263095855712890625" lon="37.75377287529408931732177734375">
        <ele>156.600006103515625</ele>
        <time>2026-02-25T09:42:16.000Z</time>
        <extensions>
          <ns3:TrackPointExtension>
            <ns3:atemp>19.0</ns3:atemp>
            <ns3:hr>119</ns3:hr>
          </ns3:TrackPointExtension>
        </extensions>
      </trkpt>
      <trkpt lat="55.43072872795164585113525390625" lon="37.753731049597263336181640625">
        <ele>156.600006103515625</ele>
        <time>2026-02-25T09:42:17.000Z</time>
        <extensions>
          <ns3:TrackPointExtension>
            <ns3:atemp>19.0</ns3:atemp>
            <ns3:hr>120</ns3:hr>
          </ns3:TrackPointExtension>
        </extensions>
      </trkpt>
      <trkpt lat="55.43073467910289764404296875" lon="37.753680087625980377197265625">
        <ele>156.8000030517578125</ele>
        <time>2026-02-25T09:42:18.000Z</time>
        <extensions>
          <ns3:TrackPointExtension>
            <ns3:atemp>19.0</ns3:atemp>
            <ns3:hr>121</ns3:hr>
          </ns3:TrackPointExtension>
        </extensions>
      </trkpt>
      <trkpt lat="55.43073409236967563629150390625" lon="37.7536393515765666961669921875">
        <ele>156.8000030517578125</ele>
        <time>2026-02-25T09:42:19.000Z</time>
        <extensions>
          <ns3:TrackPointExtension>
            <ns3:atemp>19.0</ns3:atemp>
            <ns3:hr>122</ns3:hr>
          </ns3:TrackPointExtension>
        </extensions>
      </trkpt>
      <trkpt lat="55.4307257942855358123779296875" lon="37.75359031744301319122314453125">
        <ele>156.8000030517578125</ele>
        <time>2026-02-25T09:42:20.000Z</time>
        <extensions>
          <ns3:TrackPointExtension>
            <ns3:atemp>19.0</ns3:atemp>
            <ns3:hr>124</ns3:hr>
          </ns3:TrackPointExtension>
        </extensions>
      </trkpt>
      <trkpt lat="55.43071498163044452667236328125" lon="37.753567434847354888916015625">
        <ele>156.8000030517578125</ele>
        <time>2026-02-25T09:42:21.000Z</time>
        <extensions>
          <ns3:TrackPointExtension>
            <ns3:atemp>19.0</ns3:atemp>
            <ns3:hr>126</ns3:hr>
          </ns3:TrackPointExtension>
        </extensions>
      </trkpt>
      <trkpt lat="55.430691428482532501220703125" lon="37.7535384334623813629150390625">
        <ele>156.8000030517578125</ele>
        <time>2026-02-25T09:42:22.000Z</time>
        <extensions>
          <ns3:TrackPointExtension>
            <ns3:atemp>19.0</ns3:atemp>
            <ns3:hr>129</ns3:hr>
          </ns3:TrackPointExtension>
        </extensions>
      </trkpt>
      <trkpt lat="55.43067424558103084564208984375" lon="37.75352980010211467742919921875">
        <ele>157</ele>
        <time>2026-02-25T09:42:23.000Z</time>
        <extensions>
          <ns3:TrackPointExtension>
            <ns3:atemp>19.0</ns3:atemp>
            <ns3:hr>130</ns3:hr>
          </ns3:TrackPointExtension>
        </extensions>
      </trkpt>
      <trkpt lat="55.4306535422801971435546875" lon="37.75351873598992824554443359375">
        <ele>157.1999969482421875</ele>
        <time>2026-02-25T09:42:24.000Z</time>
        <extensions>
          <ns3:TrackPointExtension>
            <ns3:atemp>19.0</ns3:atemp>
            <ns3:hr>130</ns3:hr>
          </ns3:TrackPointExtension>
        </extensions>
      </trkpt>
      <trkpt lat="55.430635102093219757080078125" lon="37.75350733660161495208740234375">
        <ele>157.399993896484375</ele>
        <time>2026-02-25T09:42:25.000Z</time>
        <extensions>
          <ns3:TrackPointExtension>
            <ns3:atemp>19.0</ns3:atemp>
            <ns3:hr>131</ns3:hr>
          </ns3:TrackPointExtension>
        </extensions>
      </trkpt>
      <trkpt lat="55.43062076903879642486572265625" lon="37.75350415147840976715087890625">
        <ele>157.399993896484375</ele>
        <time>2026-02-25T09:42:26.000Z</time>
        <extensions>
          <ns3:TrackPointExtension>
            <ns3:atemp>19.0</ns3:atemp>
            <ns3:hr>132</ns3:hr>
          </ns3:TrackPointExtension>
        </extensions>
      </trkpt>
      <trkpt lat="55.43061004020273685455322265625" lon="37.7535069175064563751220703125">
        <ele>157.600006103515625</ele>
        <time>2026-02-25T09:42:27.000Z</time>
        <extensions>
          <ns3:TrackPointExtension>
            <ns3:atemp>19.0</ns3:atemp>
            <ns3:hr>133</ns3:hr>
          </ns3:TrackPointExtension>
        </extensions>
      </trkpt>
      <trkpt lat="55.4306020773947238922119140625" lon="37.7535062469542026519775390625">
        <ele>157.600006103515625</ele>
        <time>2026-02-25T09:42:28.000Z</time>
        <extensions>
          <ns3:TrackPointExtension>
            <ns3:atemp>19.0</ns3:atemp>
            <ns3:hr>134</ns3:hr>
          </ns3:TrackPointExtension>
        </extensions>
      </trkpt>
      <trkpt lat="55.430576093494892120361328125" lon="37.75351337157189846038818359375">
        <ele>157.1999969482421875</ele>
        <time>2026-02-25T09:44:03.000Z</time>
        <extensions>
          <ns3:TrackPointExtension>
            <ns3:atemp>18.0</ns3:atemp>
            <ns3:hr>83</ns3:hr>
          </ns3:TrackPointExtension>
        </extensions>
      </trkpt>
      <trkpt lat="55.43057014234364032745361328125" lon="37.75352443568408489227294921875">
        <ele>157</ele>
        <time>2026-02-25T09:44:04.000Z</time>
        <extensions>
          <ns3:TrackPointExtension>
            <ns3:atemp>18.0</ns3:atemp>
            <ns3:hr>83</ns3:hr>
          </ns3:TrackPointExtension>
        </extensions>
      </trkpt>
      <trkpt lat="55.43053795583546161651611328125" lon="37.75352896191179752349853515625">
        <ele>157</ele>
        <time>2026-02-25T09:44:05.000Z</time>
        <extensions>
          <ns3:TrackPointExtension>
            <ns3:atemp>18.0</ns3:atemp>
            <ns3:hr>83</ns3:hr>
          </ns3:TrackPointExtension>
        </extensions>
      </trkpt>
      <trkpt lat="55.430512391030788421630859375" lon="37.7535354159772396087646484375">
        <ele>156.8000030517578125</ele>
        <time>2026-02-25T09:44:06.000Z</time>
        <extensions>
          <ns3:TrackPointExtension>
            <ns3:atemp>18.0</ns3:atemp>
            <ns3:hr>83</ns3:hr>
          </ns3:TrackPointExtension>
        </extensions>
      </trkpt>
      <trkpt lat="55.43048582039773464202880859375" lon="37.7535468153655529022216796875">
        <ele>156.8000030517578125</ele>
        <time>2026-02-25T09:44:07.000Z</time>
        <extensions>
          <ns3:TrackPointExtension>
            <ns3:atemp>18.0</ns3:atemp>
            <ns3:hr>84</ns3:hr>
          </ns3:TrackPointExtension>
        </extensions>
      </trkpt>
      <trkpt lat="55.4304542206227779388427734375" lon="37.75354421697556972503662109375">
        <ele>156.8000030517578125</ele>
        <time>2026-02-25T09:44:08.000Z</time>
        <extensions>
          <ns3:TrackPointExtension>
            <ns3:atemp>18.0</ns3:atemp>
            <ns3:hr>84</ns3:hr>
          </ns3:TrackPointExtension>
        </extensions>
      </trkpt>
      <trkpt lat="55.4304282367229461669921875" lon="37.753532230854034423828125">
        <ele>156.8000030517578125</ele>
        <time>2026-02-25T09:44:09.000Z</time>
        <extensions>
          <ns3:TrackPointExtension>
            <ns3:atemp>19.0</ns3:atemp>
            <ns3:hr>84</ns3:hr>
          </ns3:TrackPointExtension>
        </extensions>
      </trkpt>
      <trkpt lat="55.43040032498538494110107421875" lon="37.75352091528475284576416015625">
        <ele>156.8000030517578125</ele>
        <time>2026-02-25T09:44:10.000Z</time>
        <extensions>
          <ns3:TrackPointExtension>
            <ns3:atemp>18.0</ns3:atemp>
            <ns3:hr>86</ns3:hr>
          </ns3:TrackPointExtension>
        </extensions>
      </trkpt>
      <trkpt lat="55.43037367053329944610595703125" lon="37.75351353920996189117431640625">
        <ele>157</ele>
        <time>2026-02-25T09:44:11.000Z</time>
        <extensions>
          <ns3:TrackPointExtension>
            <ns3:atemp>18.0</ns3:atemp>
            <ns3:hr>87</ns3:hr>
          </ns3:TrackPointExtension>
        </extensions>
      </trkpt>
      <trkpt lat="55.43033762834966182708740234375" lon="37.7535042352974414825439453125">
        <ele>157</ele>
        <time>2026-02-25T09:44:12.000Z</time>
        <extensions>
          <ns3:TrackPointExtension>
            <ns3:atemp>18.0</ns3:atemp>
            <ns3:hr>88</ns3:hr>
          </ns3:TrackPointExtension>
        </extensions>
      </trkpt>
      <trkpt lat="55.4303110577166080474853515625" lon="37.7535075880587100982666015625">
        <ele>157</ele>
        <time>2026-02-25T09:44:13.000Z</time>
        <extensions>
          <ns3:TrackPointExtension>
            <ns3:atemp>18.0</ns3:atemp>
            <ns3:hr>89</ns3:hr>
          </ns3:TrackPointExtension>
        </extensions>
      </trkpt>
      <trkpt lat="55.4302780330181121826171875" lon="37.75350532494485378265380859375">
        <ele>157.1999969482421875</ele>
        <time>2026-02-25T09:44:14.000Z</time>
        <extensions>
          <ns3:TrackPointExtension>
            <ns3:atemp>18.0</ns3:atemp>
            <ns3:hr>88</ns3:hr>
          </ns3:TrackPointExtension>
        </extensions>
      </trkpt>
      <trkpt lat="55.430252552032470703125" lon="37.75350364856421947479248046875">
        <ele>157.1999969482421875</ele>
        <time>2026-02-25T09:44:15.000Z</time>
        <extensions>
          <ns3:TrackPointExtension>
            <ns3:atemp>19.0</ns3:atemp>
            <ns3:hr>89</ns3:hr>
          </ns3:TrackPointExtension>
        </extensions>
      </trkpt>
      <trkpt lat="55.43022396974265575408935546875" lon="37.7535067498683929443359375">
        <ele>157.1999969482421875</ele>
        <time>2026-02-25T09:44:16.000Z</time>
        <extensions>
          <ns3:TrackPointExtension>
            <ns3:atemp>18.0</ns3:atemp>
            <ns3:hr>90</ns3:hr>
          </ns3:TrackPointExtension>
        </extensions>
      </trkpt>
      <trkpt lat="55.43019580654799938201904296875" lon="37.7535075880587100982666015625">
        <ele>157.1999969482421875</ele>
        <time>2026-02-25T09:44:17.000Z</time>
        <extensions>
          <ns3:TrackPointExtension>
            <ns3:atemp>18.0</ns3:atemp>
            <ns3:hr>91</ns3:hr>
          </ns3:TrackPointExtension>
        </extensions>
      </trkpt>
      <trkpt lat="55.430169738829135894775390625" lon="37.7535142935812473297119140625">
        <ele>157.399993896484375</ele>
        <time>2026-02-25T09:44:18.000Z</time>
        <extensions>
          <ns3:TrackPointExtension>
            <ns3:atemp>18.0</ns3:atemp>
            <ns3:hr>92</ns3:hr>
          </ns3:TrackPointExtension>
        </extensions>
      </trkpt>
      <trkpt lat="55.43014048598706722259521484375" lon="37.75351488031446933746337890625">
        <ele>157.399993896484375</ele>
        <time>2026-02-25T09:44:19.000Z</time>
        <extensions>
          <ns3:TrackPointExtension>
            <ns3:atemp>18.0</ns3:atemp>
            <ns3:hr>93</ns3:hr>
          </ns3:TrackPointExtension>
        </extensions>
      </trkpt>
      <trkpt lat="55.430116094648838043212890625" lon="37.75352351367473602294921875">
        <ele>157.399993896484375</ele>
        <time>2026-02-25T09:44:20.000Z</time>
        <extensions>
          <ns3:TrackPointExtension>
            <ns3:atemp>18.0</ns3:atemp>
            <ns3:hr>94</ns3:hr>
          </ns3:TrackPointExtension>
        </extensions>
      </trkpt>
      <trkpt lat="55.4300849139690399169921875" lon="37.75353156030178070068359375">
        <ele>157.399993896484375</ele>
        <time>2026-02-25T09:44:21.000Z</time>
        <extensions>
          <ns3:TrackPointExtension>
            <ns3:atemp>18.0</ns3:atemp>
            <ns3:hr>95</ns3:hr>
          </ns3:TrackPointExtension>
        </extensions>
      </trkpt>
      <trkpt lat="55.4300612770020961761474609375" lon="37.7535443007946014404296875">
        <ele>157.600006103515625</ele>
        <time>2026-02-25T09:44:22.000Z</time>
        <extensions>
          <ns3:TrackPointExtension>
            <ns3:atemp>18.0</ns3:atemp>
            <ns3:hr>96</ns3:hr>
          </ns3:TrackPointExtension>
        </extensions>
      </trkpt>
      <trkpt lat="55.4300285875797271728515625" lon="37.7535478211939334869384765625">
        <ele>157.600006103515625</ele>
        <time>2026-02-25T09:44:23.000Z</time>
        <extensions>
          <ns3:TrackPointExtension>
            <ns3:atemp>18.0</ns3:atemp>
            <ns3:hr>97</ns3:hr>
          </ns3:TrackPointExtension>
        </extensions>
      </trkpt>
      <trkpt lat="55.43000511825084686279296875" lon="37.75355611927807331085205078125">
        <ele>157.600006103515625</ele>
        <time>2026-02-25T09:44:24.000Z</time>
        <extensions>
          <ns3:TrackPointExtension>
            <ns3:atemp>18.0</ns3:atemp>
            <ns3:hr>98</ns3:hr>
          </ns3:TrackPointExtension>
        </extensions>
      </trkpt>
      <trkpt lat="55.4299776256084442138671875" lon="37.7535635791718959808349609375">
        <ele>157.600006103515625</ele>
        <time>2026-02-25T09:44:25.000Z</time>
        <extensions>
          <ns3:TrackPointExtension>
            <ns3:atemp>18.0</ns3:atemp>
            <ns3:hr>99</ns3:hr>
          </ns3:TrackPointExtension>
        </extensions>
      </trkpt>
      <trkpt lat="55.4299549944698810577392578125" lon="37.75357103906571865081787109375">
        <ele>157.600006103515625</ele>
        <time>2026-02-25T09:44:26.000Z</time>
        <extensions>
          <ns3:TrackPointExtension>
            <ns3:atemp>18.0</ns3:atemp>
            <ns3:hr>100</ns3:hr>
          </ns3:TrackPointExtension>
        </extensions>
      </trkpt>
      <trkpt lat="55.42992674745619297027587890625" lon="37.7535763196647167205810546875">
        <ele>157.8000030517578125</ele>
        <time>2026-02-25T09:44:27.000Z</time>
        <extensions>
          <ns3:TrackPointExtension>
            <ns3:atemp>18.0</ns3:atemp>
            <ns3:hr>100</ns3:hr>
          </ns3:TrackPointExtension>
        </extensions>
      </trkpt>
      <trkpt lat="55.42990026064217090606689453125" lon="37.7535793371498584747314453125">
        <ele>157.8000030517578125</ele>
        <time>2026-02-25T09:44:28.000Z</time>
        <extensions>
          <ns3:TrackPointExtension>
            <ns3:atemp>18.0</ns3:atemp>
            <ns3:hr>101</ns3:hr>
          </ns3:TrackPointExtension>
        </extensions>
      </trkpt>
      <trkpt lat="55.429874025285243988037109375" lon="37.75358528830111026763916015625">
        <ele>157.8000030517578125</ele>
        <time>2026-02-25T09:44:29.000Z</time>
        <extensions>
          <ns3:TrackPointExtension>
            <ns3:atemp>18.0</ns3:atemp>
            <ns3:hr>102</ns3:hr>
          </ns3:TrackPointExtension>
        </extensions>
      </trkpt>
      <trkpt lat="55.4298473708331584930419921875" lon="37.75358864106237888336181640625">
        <ele>158</ele>
        <time>2026-02-25T09:44:30.000Z</time>
        <extensions>
          <ns3:TrackPointExtension>
            <ns3:atemp>18.0</ns3:atemp>
            <ns3:hr>103</ns3:hr>
          </ns3:TrackPointExtension>
        </extensions>
      </trkpt>
      <trkpt lat="55.4298228956758975982666015625" lon="37.75359668768942356109619140625">
        <ele>158</ele>
        <time>2026-02-25T09:44:31.000Z</time>
        <extensions>
          <ns3:TrackPointExtension>
            <ns3:atemp>18.0</ns3:atemp>
            <ns3:hr>104</ns3:hr>
          </ns3:TrackPointExtension>
        </extensions>
      </trkpt>
      <trkpt lat="55.42979456484317779541015625" lon="37.75359802879393100738525390625">
        <ele>158</ele>
        <time>2026-02-25T09:44:32.000Z</time>
        <extensions>
          <ns3:TrackPointExtension>
            <ns3:atemp>18.0</ns3:atemp>
            <ns3:hr>105</ns3:hr>
          </ns3:TrackPointExtension>
        </extensions>
      </trkpt>
      <trkpt lat="55.42977042496204376220703125" lon="37.7536048181354999542236328125">
        <ele>157.8000030517578125</ele>
        <time>2026-02-25T09:44:33.000Z</time>
        <extensions>
          <ns3:TrackPointExtension>
            <ns3:atemp>18.0</ns3:atemp>
            <ns3:hr>106</ns3:hr>
          </ns3:TrackPointExtension>
        </extensions>
      </trkpt>
      <trkpt lat="55.42973714880645275115966796875" lon="37.7536091767251491546630859375">
        <ele>157.8000030517578125</ele>
        <time>2026-02-25T09:44:34.000Z</time>
        <extensions>
          <ns3:TrackPointExtension>
            <ns3:atemp>18.0</ns3:atemp>
            <ns3:hr>107</ns3:hr>
          </ns3:TrackPointExtension>
        </extensions>
      </trkpt>
      <trkpt lat="55.42971074581146240234375" lon="37.7536209113895893096923828125">
        <ele>157.8000030517578125</ele>
        <time>2026-02-25T09:44:35.000Z</time>
        <extensions>
          <ns3:TrackPointExtension>
            <ns3:atemp>18.0</ns3:atemp>
            <ns3:hr>107</ns3:hr>
          </ns3:TrackPointExtension>
        </extensions>
      </trkpt>
      <trkpt lat="55.429680235683917999267578125" lon="37.753629125654697418212890625">
        <ele>157.8000030517578125</ele>
        <time>2026-02-25T09:44:36.000Z</time>
        <extensions>
          <ns3:TrackPointExtension>
            <ns3:atemp>18.0</ns3:atemp>
            <ns3:hr>108</ns3:hr>
          </ns3:TrackPointExtension>
        </extensions>
      </trkpt>
      <trkpt lat="55.42965349741280078887939453125" lon="37.75364111177623271942138671875">
        <ele>157.8000030517578125</ele>
        <time>2026-02-25T09:44:37.000Z</time>
        <extensions>
          <ns3:TrackPointExtension>
            <ns3:atemp>18.0</ns3:atemp>
            <ns3:hr>109</ns3:hr>
          </ns3:TrackPointExtension>
        </extensions>
      </trkpt>
      <trkpt lat="55.42962449602782726287841796875" lon="37.7536490745842456817626953125">
        <ele>157.8000030517578125</ele>
        <time>2026-02-25T09:44:38.000Z</time>
        <extensions>
          <ns3:TrackPointExtension>
            <ns3:atemp>18.0</ns3:atemp>
            <ns3:hr>110</ns3:hr>
          </ns3:TrackPointExtension>
        </extensions>
      </trkpt>
      <trkpt lat="55.4296012781560420989990234375" lon="37.75366030633449554443359375">
        <ele>158</ele>
        <time>2026-02-25T09:44:39.000Z</time>
        <extensions>
          <ns3:TrackPointExtension>
            <ns3:atemp>18.0</ns3:atemp>
            <ns3:hr>110</ns3:hr>
          </ns3:TrackPointExtension>
        </extensions>
      </trkpt>
      <trkpt lat="55.42957336641848087310791015625" lon="37.75366709567606449127197265625">
        <ele>158</ele>
        <time>2026-02-25T09:44:40.000Z</time>
        <extensions>
          <ns3:TrackPointExtension>
            <ns3:atemp>18.0</ns3:atemp>
            <ns3:hr>111</ns3:hr>
          </ns3:TrackPointExtension>
        </extensions>
      </trkpt>
      <trkpt lat="55.42954914271831512451171875" lon="37.75367950089275836944580078125">
        <ele>158</ele>
        <time>2026-02-25T09:44:41.000Z</time>
        <extensions>
          <ns3:TrackPointExtension>
            <ns3:atemp>18.0</ns3:atemp>
            <ns3:hr>113</ns3:hr>
          </ns3:TrackPointExtension>
        </extensions>
      </trkpt>
      <trkpt lat="55.4295228235423564910888671875" lon="37.753692828118801116943359375">
        <ele>158.1999969482421875</ele>
        <time>2026-02-25T09:44:42.000Z</time>
        <extensions>
          <ns3:TrackPointExtension>
            <ns3:atemp>18.0</ns3:atemp>
            <ns3:hr>114</ns3:hr>
          </ns3:TrackPointExtension>
        </extensions>
      </trkpt>
      <trkpt lat="55.4295001924037933349609375" lon="37.75370162911713123321533203125">
        <ele>158.1999969482421875</ele>
        <time>2026-02-25T09:44:43.000Z</time>
        <extensions>
          <ns3:TrackPointExtension>
            <ns3:atemp>18.0</ns3:atemp>
            <ns3:hr>115</ns3:hr>
          </ns3:TrackPointExtension>
        </extensions>
      </trkpt>
      <trkpt lat="55.429471693933010101318359375" lon="37.75371487252414226531982421875">
        <ele>158.1999969482421875</ele>
        <time>2026-02-25T09:44:44.000Z</time>
        <extensions>
          <ns3:TrackPointExtension>
            <ns3:atemp>18.0</ns3:atemp>
            <ns3:hr>117</ns3:hr>
          </ns3:TrackPointExtension>
        </extensions>
      </trkpt>
      <trkpt lat="55.42944587767124176025390625" lon="37.75372258387506008148193359375">
        <ele>158.399993896484375</ele>
        <time>2026-02-25T09:44:45.000Z</time>
        <extensions>
          <ns3:TrackPointExtension>
            <ns3:atemp>18.0</ns3:atemp>
            <ns3:hr>118</ns3:hr>
          </ns3:TrackPointExtension>
        </extensions>
      </trkpt>
      <trkpt lat="55.4294195584952831268310546875" lon="37.7537345699965953826904296875">
        <ele>158.399993896484375</ele>
        <time>2026-02-25T09:44:46.000Z</time>
        <extensions>
          <ns3:TrackPointExtension>
            <ns3:atemp>18.0</ns3:atemp>
            <ns3:hr>119</ns3:hr>
          </ns3:TrackPointExtension>
        </extensions>
      </trkpt>
      <trkpt lat="55.42939164675772190093994140625" lon="37.75374370627105236053466796875">
        <ele>158.600006103515625</ele>
        <time>2026-02-25T09:44:47.000Z</time>
        <extensions>
          <ns3:TrackPointExtension>
            <ns3:atemp>18.0</ns3:atemp>
            <ns3:hr>120</ns3:hr>
          </ns3:TrackPointExtension>
        </extensions>
      </trkpt>
      <trkpt lat="55.42936675250530242919921875" lon="37.75376030243933200836181640625">
        <ele>158.8000030517578125</ele>
        <time>2026-02-25T09:44:48.000Z</time>
        <extensions>
          <ns3:TrackPointExtension>
            <ns3:atemp>18.0</ns3:atemp>
            <ns3:hr>121</ns3:hr>
          </ns3:TrackPointExtension>
        </extensions>
      </trkpt>
      <trkpt lat="55.42933733202517032623291015625" lon="37.7537741325795650482177734375">
        <ele>158.8000030517578125</ele>
        <time>2026-02-25T09:44:49.000Z</time>
        <extensions>
          <ns3:TrackPointExtension>
            <ns3:atemp>18.0</ns3:atemp>
            <ns3:hr>121</ns3:hr>
          </ns3:TrackPointExtension>
        </extensions>
      </trkpt>
      <trkpt lat="55.42931176722049713134765625" lon="37.7537937462329864501953125">
        <ele>159</ele>
        <time>2026-02-25T09:44:50.000Z</time>
        <extensions>
          <ns3:TrackPointExtension>
            <ns3:atemp>18.0</ns3:atemp>
            <ns3:hr>122</ns3:hr>
          </ns3:TrackPointExtension>
        </extensions>
      </trkpt>
      <trkpt lat="55.42927983216941356658935546875" lon="37.75380305014550685882568359375">
        <ele>159</ele>
        <time>2026-02-25T09:44:51.000Z</time>
        <extensions>
          <ns3:TrackPointExtension>
            <ns3:atemp>18.0</ns3:atemp>
            <ns3:hr>123</ns3:hr>
          </ns3:TrackPointExtension>
        </extensions>
      </trkpt>
      <trkpt lat="55.429255105555057525634765625" lon="37.75381931103765964508056640625">
        <ele>159</ele>
        <time>2026-02-25T09:44:52.000Z</time>
        <extensions>
          <ns3:TrackPointExtension>
            <ns3:atemp>18.0</ns3:atemp>
            <ns3:hr>124</ns3:hr>
          </ns3:TrackPointExtension>
        </extensions>
      </trkpt>
      <trkpt lat="55.42922501452267169952392578125" lon="37.75383138097822666168212890625">
        <ele>159</ele>
        <time>2026-02-25T09:44:53.000Z</time>
        <extensions>
          <ns3:TrackPointExtension>
            <ns3:atemp>18.0</ns3:atemp>
            <ns3:hr>127</ns3:hr>
          </ns3:TrackPointExtension>
        </extensions>
      </trkpt>
      <trkpt lat="55.42920137755572795867919921875" lon="37.75384244509041309356689453125">
        <ele>159.1999969482421875</ele>
        <time>2026-02-25T09:44:54.000Z</time>
        <extensions>
          <ns3:TrackPointExtension>
            <ns3:atemp>18.0</ns3:atemp>
            <ns3:hr>129</ns3:hr>
          </ns3:TrackPointExtension>
        </extensions>
      </trkpt>
      <trkpt lat="55.429171957075595855712890625" lon="37.75385250337421894073486328125">
        <ele>159.1999969482421875</ele>
        <time>2026-02-25T09:44:55.000Z</time>
        <extensions>
          <ns3:TrackPointExtension>
            <ns3:atemp>18.0</ns3:atemp>
            <ns3:hr>131</ns3:hr>
          </ns3:TrackPointExtension>
        </extensions>
      </trkpt>
      <trkpt lat="55.4291473142802715301513671875" lon="37.75386205874383449554443359375">
        <ele>159.1999969482421875</ele>
        <time>2026-02-25T09:44:56.000Z</time>
        <extensions>
          <ns3:TrackPointExtension>
            <ns3:atemp>18.0</ns3:atemp>
            <ns3:hr>136</ns3:hr>
          </ns3:TrackPointExtension>
        </extensions>
      </trkpt>
      <trkpt lat="55.42912258766591548919677734375" lon="37.753870189189910888671875">
        <ele>159.399993896484375</ele>
        <time>2026-02-25T09:44:57.000Z</time>
        <extensions>
          <ns3:TrackPointExtension>
            <ns3:atemp>18.0</ns3:atemp>
            <ns3:hr>138</ns3:hr>
          </ns3:TrackPointExtension>
        </extensions>
      </trkpt>
      <trkpt lat="55.42909719049930572509765625" lon="37.75387949310243129730224609375">
        <ele>159.399993896484375</ele>
        <time>2026-02-25T09:44:58.000Z</time>
        <extensions>
          <ns3:TrackPointExtension>
            <ns3:atemp>18.0</ns3:atemp>
            <ns3:hr>140</ns3:hr>
          </ns3:TrackPointExtension>
        </extensions>
      </trkpt>
      <trkpt lat="55.42907129041850566864013671875" lon="37.7538904733955860137939453125">
        <ele>159.399993896484375</ele>
        <time>2026-02-25T09:44:59.000Z</time>
        <extensions>
          <ns3:TrackPointExtension>
            <ns3:atemp>18.0</ns3:atemp>
            <ns3:hr>141</ns3:hr>
          </ns3:TrackPointExtension>
        </extensions>
      </trkpt>
      <trkpt lat="55.42904631234705448150634765625" lon="37.7538991905748844146728515625">
        <ele>159.600006103515625</ele>
        <time>2026-02-25T09:45:00.000Z</time>
        <extensions>
          <ns3:TrackPointExtension>
            <ns3:atemp>18.0</ns3:atemp>
            <ns3:hr>142</ns3:hr>
          </ns3:TrackPointExtension>
        </extensions>
      </trkpt>
      <trkpt lat="55.42901949025690555572509765625" lon="37.75391838513314723968505859375">
        <ele>159.600006103515625</ele>
        <time>2026-02-25T09:45:01.000Z</time>
        <extensions>
          <ns3:TrackPointExtension>
            <ns3:atemp>18.0</ns3:atemp>
            <ns3:hr>143</ns3:hr>
          </ns3:TrackPointExtension>
        </extensions>
      </trkpt>
      <trkpt lat="55.4289917461574077606201171875" lon="37.75393213145434856414794921875">
        <ele>159.8000030517578125</ele>
        <time>2026-02-25T09:45:02.000Z</time>
        <extensions>
          <ns3:TrackPointExtension>
            <ns3:atemp>18.0</ns3:atemp>
            <ns3:hr>144</ns3:hr>
          </ns3:TrackPointExtension>
        </extensions>
      </trkpt>
      <trkpt lat="55.42896802537143230438232421875" lon="37.75395493023097515106201171875">
        <ele>159.8000030517578125</ele>
        <time>2026-02-25T09:45:03.000Z</time>
        <extensions>
          <ns3:TrackPointExtension>
            <ns3:atemp>18.0</ns3:atemp>
            <ns3:hr>143</ns3:hr>
          </ns3:TrackPointExtension>
        </extensions>
      </trkpt>
      <trkpt lat="55.42894103564321994781494140625" lon="37.7539680898189544677734375">
        <ele>160</ele>
        <time>2026-02-25T09:45:04.000Z</time>
        <extensions>
          <ns3:TrackPointExtension>
            <ns3:atemp>18.0</ns3:atemp>
            <ns3:hr>144</ns3:hr>
          </ns3:TrackPointExtension>
        </extensions>
      </trkpt>
      <trkpt lat="55.42891572229564189910888671875" lon="37.7539840154349803924560546875">
        <ele>160</ele>
        <time>2026-02-25T09:45:05.000Z</time>
        <extensions>
          <ns3:TrackPointExtension>
            <ns3:atemp>18.0</ns3:atemp>
            <ns3:hr>144</ns3:hr>
          </ns3:TrackPointExtension>
        </extensions>
      </trkpt>
      <trkpt lat="55.4288894869387149810791015625" lon="37.753996588289737701416015625">
        <ele>160.1999969482421875</ele>
        <time>2026-02-25T09:45:06.000Z</time>
        <extensions>
          <ns3:TrackPointExtension>
            <ns3:atemp>18.0</ns3:atemp>
            <ns3:hr>145</ns3:hr>
          </ns3:TrackPointExtension>
        </extensions>
      </trkpt>
      <trkpt lat="55.42886425741016864776611328125" lon="37.75401033461093902587890625">
        <ele>160.1999969482421875</ele>
        <time>2026-02-25T09:45:07.000Z</time>
        <extensions>
          <ns3:TrackPointExtension>
            <ns3:atemp>18.0</ns3:atemp>
            <ns3:hr>145</ns3:hr>
          </ns3:TrackPointExtension>
        </extensions>
      </trkpt>
      <trkpt lat="55.42883701622486114501953125" lon="37.75402265600860118865966796875">
        <ele>160.1999969482421875</ele>
        <time>2026-02-25T09:45:08.000Z</time>
        <extensions>
          <ns3:TrackPointExtension>
            <ns3:atemp>18.0</ns3:atemp>
            <ns3:hr>146</ns3:hr>
          </ns3:TrackPointExtension>
        </extensions>
      </trkpt>
      <trkpt lat="55.4288100264966487884521484375" lon="37.75403556413948535919189453125">
        <ele>160.399993896484375</ele>
        <time>2026-02-25T09:45:09.000Z</time>
        <extensions>
          <ns3:TrackPointExtension>
            <ns3:atemp>18.0</ns3:atemp>
            <ns3:hr>146</ns3:hr>
          </ns3:TrackPointExtension>
        </extensions>
      </trkpt>
      <trkpt lat="55.4287832044064998626708984375" lon="37.75404746644198894500732421875">
        <ele>160.399993896484375</ele>
        <time>2026-02-25T09:45:10.000Z</time>
        <extensions>
          <ns3:TrackPointExtension>
            <ns3:atemp>18.0</ns3:atemp>
            <ns3:hr>147</ns3:hr>
          </ns3:TrackPointExtension>
        </extensions>
      </trkpt>
      <trkpt lat="55.428756885230541229248046875" lon="37.754058279097080230712890625">
        <ele>160.399993896484375</ele>
        <time>2026-02-25T09:45:11.000Z</time>
        <extensions>
          <ns3:TrackPointExtension>
            <ns3:atemp>18.0</ns3:atemp>
            <ns3:hr>147</ns3:hr>
          </ns3:TrackPointExtension>
        </extensions>
      </trkpt>
      <trkpt lat="55.42872662656009197235107421875" lon="37.75406389497220516204833984375">
        <ele>160.399993896484375</ele>
        <time>2026-02-25T09:45:12.000Z</time>
        <extensions>
          <ns3:TrackPointExtension>
            <ns3:atemp>18.0</ns3:atemp>
            <ns3:hr>148</ns3:hr>
          </ns3:TrackPointExtension>
        </extensions>
      </trkpt>
      <trkpt lat="55.42869946919381618499755859375" lon="37.7540658228099346160888671875">
        <ele>160.600006103515625</ele>
        <time>2026-02-25T09:45:13.000Z</time>
        <extensions>
          <ns3:TrackPointExtension>
            <ns3:atemp>18.0</ns3:atemp>
            <ns3:hr>149</ns3:hr>
          </ns3:TrackPointExtension>
        </extensions>
      </trkpt>
      <trkpt lat="55.42867532931268215179443359375" lon="37.75407965295016765594482421875">
        <ele>160.600006103515625</ele>
        <time>2026-02-25T09:45:14.000Z</time>
        <extensions>
          <ns3:TrackPointExtension>
            <ns3:atemp>18.0</ns3:atemp>
            <ns3:hr>149</ns3:hr>
          </ns3:TrackPointExtension>
        </extensions>
      </trkpt>
      <trkpt lat="55.428652279078960418701171875" lon="37.75408635847270488739013671875">
        <ele>160.600006103515625</ele>
        <time>2026-02-25T09:45:15.000Z</time>
        <extensions>
          <ns3:TrackPointExtension>
            <ns3:atemp>18.0</ns3:atemp>
            <ns3:hr>149</ns3:hr>
          </ns3:TrackPointExtension>
        </extensions>
      </trkpt>
      <trkpt lat="55.428634174168109893798828125" lon="37.75409826077520847320556640625">
        <ele>160.600006103515625</ele>
        <time>2026-02-25T09:45:16.000Z</time>
        <extensions>
          <ns3:TrackPointExtension>
            <ns3:atemp>17.0</ns3:atemp>
            <ns3:hr>150</ns3:hr>
          </ns3:TrackPointExtension>
        </extensions>
      </trkpt>
      <trkpt lat="55.42861263267695903778076171875" lon="37.7541003562510013580322265625">
        <ele>160.600006103515625</ele>
        <time>2026-02-25T09:45:17.000Z</time>
        <extensions>
          <ns3:TrackPointExtension>
            <ns3:atemp>17.0</ns3:atemp>
            <ns3:hr>150</ns3:hr>
          </ns3:TrackPointExtension>
        </extensions>
      </trkpt>
      <trkpt lat="55.428595952689647674560546875" lon="37.75410161353647708892822265625">
        <ele>160.600006103515625</ele>
        <time>2026-02-25T09:45:18.000Z</time>
        <extensions>
          <ns3:TrackPointExtension>
            <ns3:atemp>17.0</ns3:atemp>
            <ns3:hr>150</ns3:hr>
          </ns3:TrackPointExtension>
        </extensions>
      </trkpt>
      <trkpt lat="55.428573153913021087646484375" lon="37.75409725494682788848876953125">
        <ele>160.399993896484375</ele>
        <time>2026-02-25T09:45:19.000Z</time>
        <extensions>
          <ns3:TrackPointExtension>
            <ns3:atemp>17.0</ns3:atemp>
            <ns3:hr>149</ns3:hr>
          </ns3:TrackPointExtension>
        </extensions>
      </trkpt>
      <trkpt lat="55.42855203151702880859375" lon="37.75410689413547515869140625">
        <ele>160.600006103515625</ele>
        <time>2026-02-25T09:45:20.000Z</time>
        <extensions>
          <ns3:TrackPointExtension>
            <ns3:atemp>17.0</ns3:atemp>
            <ns3:hr>149</ns3:hr>
          </ns3:TrackPointExtension>
        </extensions>
      </trkpt>
      <trkpt lat="55.42853216640651226043701171875" lon="37.7541157789528369903564453125">
        <ele>160.600006103515625</ele>
        <time>2026-02-25T09:45:21.000Z</time>
        <extensions>
          <ns3:TrackPointExtension>
            <ns3:atemp>17.0</ns3:atemp>
            <ns3:hr>149</ns3:hr>
          </ns3:TrackPointExtension>
        </extensions>
      </trkpt>
      <trkpt lat="55.42850718833506107330322265625" lon="37.75412457995116710662841796875">
        <ele>160.600006103515625</ele>
        <time>2026-02-25T09:45:22.000Z</time>
        <extensions>
          <ns3:TrackPointExtension>
            <ns3:atemp>17.0</ns3:atemp>
            <ns3:hr>150</ns3:hr>
          </ns3:TrackPointExtension>
        </extensions>
      </trkpt>
      <trkpt lat="55.4284844733774662017822265625" lon="37.754134051501750946044921875">
        <ele>160.8000030517578125</ele>
        <time>2026-02-25T09:45:23.000Z</time>
        <extensions>
          <ns3:TrackPointExtension>
            <ns3:atemp>17.0</ns3:atemp>
            <ns3:hr>149</ns3:hr>
          </ns3:TrackPointExtension>
        </extensions>
      </trkpt>
      <trkpt lat="55.42846058495342731475830078125" lon="37.75414519943296909332275390625">
        <ele>160.8000030517578125</ele>
        <time>2026-02-25T09:45:24.000Z</time>
        <extensions>
          <ns3:TrackPointExtension>
            <ns3:atemp>17.0</ns3:atemp>
            <ns3:hr>149</ns3:hr>
          </ns3:TrackPointExtension>
        </extensions>
      </trkpt>
      <trkpt lat="55.4284378699958324432373046875" lon="37.75415911339223384857177734375">
        <ele>160.8000030517578125</ele>
        <time>2026-02-25T09:45:25.000Z</time>
        <extensions>
          <ns3:TrackPointExtension>
            <ns3:atemp>17.0</ns3:atemp>
            <ns3:hr>149</ns3:hr>
          </ns3:TrackPointExtension>
        </extensions>
      </trkpt>
      <trkpt lat="55.42841029353439807891845703125" lon="37.75417084805667400360107421875">
        <ele>161</ele>
        <time>2026-02-25T09:45:26.000Z</time>
        <extensions>
          <ns3:TrackPointExtension>
            <ns3:atemp>17.0</ns3:atemp>
            <ns3:hr>149</ns3:hr>
          </ns3:TrackPointExtension>
        </extensions>
      </trkpt>
      <trkpt lat="55.42838749475777149200439453125" lon="37.75418275035917758941650390625">
        <ele>161</ele>
        <time>2026-02-25T09:45:27.000Z</time>
        <extensions>
          <ns3:TrackPointExtension>
            <ns3:atemp>17.0</ns3:atemp>
            <ns3:hr>149</ns3:hr>
          </ns3:TrackPointExtension>
        </extensions>
      </trkpt>
      <trkpt lat="55.42836100794374942779541015625" lon="37.7541933953762054443359375">
        <ele>161</ele>
        <time>2026-02-25T09:45:28.000Z</time>
        <extensions>
          <ns3:TrackPointExtension>
            <ns3:atemp>17.0</ns3:atemp>
            <ns3:hr>150</ns3:hr>
          </ns3:TrackPointExtension>
        </extensions>
      </trkpt>
      <trkpt lat="55.42833988554775714874267578125" lon="37.75421041063964366912841796875">
        <ele>161</ele>
        <time>2026-02-25T09:45:29.000Z</time>
        <extensions>
          <ns3:TrackPointExtension>
            <ns3:atemp>17.0</ns3:atemp>
            <ns3:hr>150</ns3:hr>
          </ns3:TrackPointExtension>
        </extensions>
      </trkpt>
      <trkpt lat="55.42832429520785808563232421875" lon="37.754235975444316864013671875">
        <ele>161</ele>
        <time>2026-02-25T09:45:30.000Z</time>
        <extensions>
          <ns3:TrackPointExtension>
            <ns3:atemp>17.0</ns3:atemp>
            <ns3:hr>150</ns3:hr>
          </ns3:TrackPointExtension>
        </extensions>
      </trkpt>
      <trkpt lat="55.42831708677113056182861328125" lon="37.754277884960174560546875">
        <ele>161</ele>
        <time>2026-02-25T09:45:31.000Z</time>
        <extensions>
          <ns3:TrackPointExtension>
            <ns3:atemp>17.0</ns3:atemp>
            <ns3:hr>150</ns3:hr>
          </ns3:TrackPointExtension>
        </extensions>
      </trkpt>
      <trkpt lat="55.42831574566662311553955078125" lon="37.75431116111576557159423828125">
        <ele>161</ele>
        <time>2026-02-25T09:45:32.000Z</time>
        <extensions>
          <ns3:TrackPointExtension>
            <ns3:atemp>17.0</ns3:atemp>
            <ns3:hr>150</ns3:hr>
          </ns3:TrackPointExtension>
        </extensions>
      </trkpt>
      <trkpt lat="55.42831934988498687744140625" lon="37.754364721477031707763671875">
        <ele>161</ele>
        <time>2026-02-25T09:45:33.000Z</time>
        <extensions>
          <ns3:TrackPointExtension>
            <ns3:atemp>17.0</ns3:atemp>
            <ns3:hr>150</ns3:hr>
          </ns3:TrackPointExtension>
        </extensions>
      </trkpt>
      <trkpt lat="55.4283238761126995086669921875" lon="37.75440059602260589599609375">
        <ele>160.8000030517578125</ele>
        <time>2026-02-25T09:45:34.000Z</time>
        <extensions>
          <ns3:TrackPointExtension>
            <ns3:atemp>17.0</ns3:atemp>
            <ns3:hr>150</ns3:hr>
          </ns3:TrackPointExtension>
        </extensions>
      </trkpt>
      <trkpt lat="55.42833770625293254852294921875" lon="37.75443672202527523040771484375">
        <ele>160.8000030517578125</ele>
        <time>2026-02-25T09:45:35.000Z</time>
        <extensions>
          <ns3:TrackPointExtension>
            <ns3:atemp>17.0</ns3:atemp>
            <ns3:hr>150</ns3:hr>
          </ns3:TrackPointExtension>
        </extensions>
      </trkpt>
      <trkpt lat="55.42835245840251445770263671875" lon="37.7544778771698474884033203125">
        <ele>160.600006103515625</ele>
        <time>2026-02-25T09:45:36.000Z</time>
        <extensions>
          <ns3:TrackPointExtension>
            <ns3:atemp>17.0</ns3:atemp>
            <ns3:hr>150</ns3:hr>
          </ns3:TrackPointExtension>
        </extensions>
      </trkpt>
      <trkpt lat="55.4283651150763034820556640625" lon="37.7545137517154216766357421875">
        <ele>160.600006103515625</ele>
        <time>2026-02-25T09:45:37.000Z</time>
        <extensions>
          <ns3:TrackPointExtension>
            <ns3:atemp>17.0</ns3:atemp>
            <ns3:hr>149</ns3:hr>
          </ns3:TrackPointExtension>
        </extensions>
      </trkpt>
      <trkpt lat="55.42837726883590221405029296875" lon="37.754561863839626312255859375">
        <ele>160.600006103515625</ele>
        <time>2026-02-25T09:45:38.000Z</time>
        <extensions>
          <ns3:TrackPointExtension>
            <ns3:atemp>17.0</ns3:atemp>
            <ns3:hr>149</ns3:hr>
          </ns3:TrackPointExtension>
        </extensions>
      </trkpt>
      <trkpt lat="55.42838615365326404571533203125" lon="37.75460310280323028564453125">
        <ele>160.600006103515625</ele>
        <time>2026-02-25T09:45:39.000Z</time>
        <extensions>
          <ns3:TrackPointExtension>
            <ns3:atemp>17.0</ns3:atemp>
            <ns3:hr>149</ns3:hr>
          </ns3:TrackPointExtension>
        </extensions>
      </trkpt>
      <trkpt lat="55.4283959604799747467041015625" lon="37.75465272367000579833984375">
        <ele>160.600006103515625</ele>
        <time>2026-02-25T09:45:40.000Z</time>
        <extensions>
          <ns3:TrackPointExtension>
            <ns3:atemp>17.0</ns3:atemp>
            <ns3:hr>150</ns3:hr>
          </ns3:TrackPointExtension>
        </extensions>
      </trkpt>
      <trkpt lat="55.428404845297336578369140625" lon="37.75469169951975345611572265625">
        <ele>160.8000030517578125</ele>
        <time>2026-02-25T09:45:41.000Z</time>
        <extensions>
          <ns3:TrackPointExtension>
            <ns3:atemp>17.0</ns3:atemp>
            <ns3:hr>149</ns3:hr>
          </ns3:TrackPointExtension>
        </extensions>
      </trkpt>
      <trkpt lat="55.42841129936277866363525390625" lon="37.75473662652075290679931640625">
        <ele>160.8000030517578125</ele>
        <time>2026-02-25T09:45:42.000Z</time>
        <extensions>
          <ns3:TrackPointExtension>
            <ns3:atemp>17.0</ns3:atemp>
            <ns3:hr>149</ns3:hr>
          </ns3:TrackPointExtension>
        </extensions>
      </trkpt>
      <trkpt lat="55.42841884307563304901123046875" lon="37.75477803312242031097412109375">
        <ele>160.8000030517578125</ele>
        <time>2026-02-25T09:45:43.000Z</time>
        <extensions>
          <ns3:TrackPointExtension>
            <ns3:atemp>17.0</ns3:atemp>
            <ns3:hr>150</ns3:hr>
          </ns3:TrackPointExtension>
        </extensions>
      </trkpt>
      <trkpt lat="55.42843225412070751190185546875" lon="37.75481977500021457672119140625">
        <ele>160.8000030517578125</ele>
        <time>2026-02-25T09:45:44.000Z</time>
        <extensions>
          <ns3:TrackPointExtension>
            <ns3:atemp>17.0</ns3:atemp>
            <ns3:hr>149</ns3:hr>
          </ns3:TrackPointExtension>
        </extensions>
      </trkpt>
      <trkpt lat="55.428447425365447998046875" lon="37.75486051104962825775146484375">
        <ele>161</ele>
        <time>2026-02-25T09:45:45.000Z</time>
        <extensions>
          <ns3:TrackPointExtension>
            <ns3:atemp>17.0</ns3:atemp>
            <ns3:hr>149</ns3:hr>
          </ns3:TrackPointExtension>
        </extensions>
      </trkpt>
      <trkpt lat="55.42845807038247585296630859375" lon="37.75489890016615390777587890625">
        <ele>161</ele>
        <time>2026-02-25T09:45:46.000Z</time>
        <extensions>
          <ns3:TrackPointExtension>
            <ns3:atemp>17.0</ns3:atemp>
            <ns3:hr>149</ns3:hr>
          </ns3:TrackPointExtension>
        </extensions>
      </trkpt>
      <trkpt lat="55.4284747503697872161865234375" lon="37.75494181551039218902587890625">
        <ele>161.1999969482421875</ele>
        <time>2026-02-25T09:45:47.000Z</time>
        <extensions>
          <ns3:TrackPointExtension>
            <ns3:atemp>17.0</ns3:atemp>
            <ns3:hr>148</ns3:hr>
          </ns3:TrackPointExtension>
        </extensions>
      </trkpt>
      <trkpt lat="55.4284863173961639404296875" lon="37.75497685186564922332763671875">
        <ele>161.1999969482421875</ele>
        <time>2026-02-25T09:45:48.000Z</time>
        <extensions>
          <ns3:TrackPointExtension>
            <ns3:atemp>17.0</ns3:atemp>
            <ns3:hr>148</ns3:hr>
          </ns3:TrackPointExtension>
        </extensions>
      </trkpt>
      <trkpt lat="55.42849662713706493377685546875" lon="37.75502379052340984344482421875">
        <ele>161.1999969482421875</ele>
        <time>2026-02-25T09:45:49.000Z</time>
        <extensions>
          <ns3:TrackPointExtension>
            <ns3:atemp>17.0</ns3:atemp>
            <ns3:hr>148</ns3:hr>
          </ns3:TrackPointExtension>
        </extensions>
      </trkpt>
      <trkpt lat="55.42850903235375881195068359375" lon="37.75505782105028629302978515625">
        <ele>161.399993896484375</ele>
        <time>2026-02-25T09:45:50.000Z</time>
        <extensions>
          <ns3:TrackPointExtension>
            <ns3:atemp>17.0</ns3:atemp>
            <ns3:hr>148</ns3:hr>
          </ns3:TrackPointExtension>
        </extensions>
      </trkpt>
      <trkpt lat="55.4285213537514209747314453125" lon="37.7551038376986980438232421875">
        <ele>161.399993896484375</ele>
        <time>2026-02-25T09:45:51.000Z</time>
        <extensions>
          <ns3:TrackPointExtension>
            <ns3:atemp>17.0</ns3:atemp>
            <ns3:hr>147</ns3:hr>
          </ns3:TrackPointExtension>
        </extensions>
      </trkpt>
      <trkpt lat="55.42853300459682941436767578125" lon="37.75514482520520687103271484375">
        <ele>161.399993896484375</ele>
        <time>2026-02-25T09:45:52.000Z</time>
        <extensions>
          <ns3:TrackPointExtension>
            <ns3:atemp>17.0</ns3:atemp>
            <ns3:hr>147</ns3:hr>
          </ns3:TrackPointExtension>
        </extensions>
      </trkpt>
      <trkpt lat="55.4285428114235401153564453125" lon="37.75517533533275127410888671875">
        <ele>161.399993896484375</ele>
        <time>2026-02-25T09:45:53.000Z</time>
        <extensions>
          <ns3:TrackPointExtension>
            <ns3:atemp>17.0</ns3:atemp>
            <ns3:hr>147</ns3:hr>
          </ns3:TrackPointExtension>
        </extensions>
      </trkpt>
      <trkpt lat="55.42855278588831424713134765625" lon="37.75520794093608856201171875">
        <ele>161.1999969482421875</ele>
        <time>2026-02-25T09:45:54.000Z</time>
        <extensions>
          <ns3:TrackPointExtension>
            <ns3:atemp>17.0</ns3:atemp>
            <ns3:hr>146</ns3:hr>
          </ns3:TrackPointExtension>
        </extensions>
      </trkpt>
      <trkpt lat="55.4285615868866443634033203125" lon="37.7552322484552860260009765625">
        <ele>161.1999969482421875</ele>
        <time>2026-02-25T09:45:55.000Z</time>
        <extensions>
          <ns3:TrackPointExtension>
            <ns3:atemp>17.0</ns3:atemp>
            <ns3:hr>146</ns3:hr>
          </ns3:TrackPointExtension>
        </extensions>
      </trkpt>
      <trkpt lat="55.4285699687898159027099609375" lon="37.7552634291350841522216796875">
        <ele>161.1999969482421875</ele>
        <time>2026-02-25T09:45:56.000Z</time>
        <extensions>
          <ns3:TrackPointExtension>
            <ns3:atemp>17.0</ns3:atemp>
            <ns3:hr>146</ns3:hr>
          </ns3:TrackPointExtension>
        </extensions>
      </trkpt>
      <trkpt lat="55.42858061380684375762939453125" lon="37.7552890777587890625">
        <ele>161</ele>
        <time>2026-02-25T09:45:57.000Z</time>
        <extensions>
          <ns3:TrackPointExtension>
            <ns3:atemp>17.0</ns3:atemp>
            <ns3:hr>146</ns3:hr>
          </ns3:TrackPointExtension>
        </extensions>
      </trkpt>
      <trkpt lat="55.42859452776610851287841796875" lon="37.755316905677318572998046875">
        <ele>161</ele>
        <time>2026-02-25T09:45:58.000Z</time>
        <extensions>
          <ns3:TrackPointExtension>
            <ns3:atemp>17.0</ns3:atemp>
            <ns3:hr>146</ns3:hr>
          </ns3:TrackPointExtension>
        </extensions>
      </trkpt>
      <trkpt lat="55.42861229740083217620849609375" lon="37.75533802807331085205078125">
        <ele>161</ele>
        <time>2026-02-25T09:45:59.000Z</time>
        <extensions>
          <ns3:TrackPointExtension>
            <ns3:atemp>17.0</ns3:atemp>
            <ns3:hr>146</ns3:hr>
          </ns3:TrackPointExtension>
        </extensions>
      </trkpt>
      <trkpt lat="55.42862755246460437774658203125" lon="37.75536459870636463165283203125">
        <ele>161</ele>
        <time>2026-02-25T09:46:00.000Z</time>
        <extensions>
          <ns3:TrackPointExtension>
            <ns3:atemp>17.0</ns3:atemp>
            <ns3:hr>146</ns3:hr>
          </ns3:TrackPointExtension>
        </extensions>
      </trkpt>
      <trkpt lat="55.4286403767764568328857421875" lon="37.75538890622556209564208984375">
        <ele>161</ele>
        <time>2026-02-25T09:46:01.000Z</time>
        <extensions>
          <ns3:TrackPointExtension>
            <ns3:atemp>17.0</ns3:atemp>
            <ns3:hr>145</ns3:hr>
          </ns3:TrackPointExtension>
        </extensions>
      </trkpt>
      <trkpt lat="55.42864926159381866455078125" lon="37.75541036389768123626708984375">
        <ele>161</ele>
        <time>2026-02-25T09:46:02.000Z</time>
        <extensions>
          <ns3:TrackPointExtension>
            <ns3:atemp>17.0</ns3:atemp>
            <ns3:hr>142</ns3:hr>
          </ns3:TrackPointExtension>
        </extensions>
      </trkpt>
      <trkpt lat="55.4286581464111804962158203125" lon="37.75543592870235443115234375">
        <ele>160.8000030517578125</ele>
        <time>2026-02-25T09:46:03.000Z</time>
        <extensions>
          <ns3:TrackPointExtension>
            <ns3:atemp>17.0</ns3:atemp>
            <ns3:hr>140</ns3:hr>
          </ns3:TrackPointExtension>
        </extensions>
      </trkpt>
      <trkpt lat="55.4286712221801280975341796875" lon="37.755465097725391387939453125">
        <ele>160.8000030517578125</ele>
        <time>2026-02-25T09:46:04.000Z</time>
        <extensions>
          <ns3:TrackPointExtension>
            <ns3:atemp>17.0</ns3:atemp>
            <ns3:hr>140</ns3:hr>
          </ns3:TrackPointExtension>
        </extensions>
      </trkpt>
      <trkpt lat="55.4286769218742847442626953125" lon="37.75548756122589111328125">
        <ele>161</ele>
        <time>2026-02-25T09:46:05.000Z</time>
        <extensions>
          <ns3:TrackPointExtension>
            <ns3:atemp>17.0</ns3:atemp>
            <ns3:hr>139</ns3:hr>
          </ns3:TrackPointExtension>
        </extensions>
      </trkpt>
      <trkpt lat="55.42867616750299930572509765625" lon="37.75550457648932933807373046875">
        <ele>161</ele>
        <time>2026-02-25T09:46:06.000Z</time>
        <extensions>
          <ns3:TrackPointExtension>
            <ns3:atemp>17.0</ns3:atemp>
            <ns3:hr>138</ns3:hr>
          </ns3:TrackPointExtension>
        </extensions>
      </trkpt>
      <trkpt lat="55.42866460047662258148193359375" lon="37.75552041828632354736328125">
        <ele>161.1999969482421875</ele>
        <time>2026-02-25T09:46:07.000Z</time>
        <extensions>
          <ns3:TrackPointExtension>
            <ns3:atemp>17.0</ns3:atemp>
            <ns3:hr>138</ns3:hr>
          </ns3:TrackPointExtension>
        </extensions>
      </trkpt>
      <trkpt lat="55.42865336872637271881103515625" lon="37.75553223676979541778564453125">
        <ele>161.399993896484375</ele>
        <time>2026-02-25T09:46:08.000Z</time>
        <extensions>
          <ns3:TrackPointExtension>
            <ns3:atemp>17.0</ns3:atemp>
            <ns3:hr>137</ns3:hr>
          </ns3:TrackPointExtension>
        </extensions>
      </trkpt>
      <trkpt lat="55.428647585213184356689453125" lon="37.75553726591169834136962890625">
        <ele>161.600006103515625</ele>
        <time>2026-02-25T09:46:09.000Z</time>
        <extensions>
          <ns3:TrackPointExtension>
            <ns3:atemp>17.0</ns3:atemp>
            <ns3:hr>136</ns3:hr>
          </ns3:TrackPointExtension>
        </extensions>
      </trkpt>
      <trkpt lat="55.42864180169999599456787109375" lon="37.75553978048264980316162109375">
        <ele>161.600006103515625</ele>
        <time>2026-02-25T09:46:10.000Z</time>
        <extensions>
          <ns3:TrackPointExtension>
            <ns3:atemp>17.0</ns3:atemp>
            <ns3:hr>136</ns3:hr>
          </ns3:TrackPointExtension>
        </extensions>
      </trkpt>
      <trkpt lat="55.42863450944423675537109375" lon="37.75555017404258251190185546875">
        <ele>161.8000030517578125</ele>
        <time>2026-02-25T09:46:11.000Z</time>
        <extensions>
          <ns3:TrackPointExtension>
            <ns3:atemp>17.0</ns3:atemp>
            <ns3:hr>135</ns3:hr>
          </ns3:TrackPointExtension>
        </extensions>
      </trkpt>
      <trkpt lat="55.42862587608397006988525390625" lon="37.755568027496337890625">
        <ele>161.8000030517578125</ele>
        <time>2026-02-25T09:46:12.000Z</time>
        <extensions>
          <ns3:TrackPointExtension>
            <ns3:atemp>17.0</ns3:atemp>
            <ns3:hr>134</ns3:hr>
          </ns3:TrackPointExtension>
        </extensions>
      </trkpt>
    </trkseg>
  </trk>
</gpx>
